{
"type": "FeatureCollection",
"name": "boundary",
"crs": { "type": "name", "properties": { "name": "urn:ogc:def:crs:EPSG::32636" } },
"features": [
{ "type": "Feature", "properties": { "Layer": "0", "PaperSpace": null, "SubClasses": "AcDbEntity:AcDbHatch", "Linetype": null, "EntityHandle": "20000", "Text": "SOLID" }, "geometry": { "type": "MultiPolygon", "coordinates": [ [ [ [ 1089227.125492070103064, 4861398.031340168789029 ], [ 1089226.633853930048645, 4861400.462396790273488 ], [ 1089246.52338116010651, 4861404.396137869916856 ], [ 1089245.327209969982505, 4861410.560674561187625 ], [ 1089254.589243570109829, 4861412.34393191896379 ], [ 1089256.970587929943576, 4861400.047476439736784 ], [ 1089247.700472269905731, 4861398.263503150083125 ], [ 1089227.923635170096532, 4861394.25016376003623 ], [ 1089227.411739259958267, 4861396.634637259878218 ], [ 1089227.125492070103064, 4861398.031340168789029 ] ] ] ] } },
{ "type": "Feature", "properties": { "Layer": "0", "PaperSpace": null, "SubClasses": "AcDbEntity:AcDbHatch", "Linetype": null, "EntityHandle": "20003", "Text": "SOLID" }, "geometry": { "type": "MultiPolygon", "coordinates": [ [ [ [ 1089247.245020040078089, 4861400.652975330129266 ], [ 1089227.411739259958267, 4861396.634637259878218 ], [ 1089227.125492070103064, 4861398.031340168789029 ], [ 1089247.005978409899399, 4861401.975477948784828 ], [ 1089247.245020040078089, 4861400.652975330129266 ] ] ] ] } },
{ "type": "Feature", "properties": { "Layer": "0", "PaperSpace": null, "SubClasses": "AcDbEntity:AcDbHatch", "Linetype": null, "EntityHandle": "20019", "Text": "SOLID" }, "geometry": { "type": "MultiPolygon", "coordinates": [ [ [ [ 1009067.100275920005515, 4881575.244842249900103 ], [ 1009094.978328480035998, 4881577.683577829040587 ], [ 1009096.357439680024981, 4881561.988295818679035 ], [ 1009068.471288969973102, 4881559.548941030167043 ], [ 1009067.100275920005515, 4881575.244842249900103 ] ] ] ] } },
{ "type": "Feature", "properties": { "Layer": "0", "PaperSpace": null, "SubClasses": "AcDbEntity:AcDbHatch", "Linetype": null, "EntityHandle": "20053", "Text": "SOLID" }, "geometry": { "type": "MultiPolygon", "coordinates": [ [ [ [ 529814.751891748979688, 5004953.628325180150568 ], [ 529844.329757565865293, 5004950.823454478755593 ], [ 529833.773845933843404, 5004918.956578419543803 ], [ 529816.99062540999148, 5004925.187773070298135 ], [ 529819.69526658509858, 5004932.977042050100863 ], [ 529818.316300297039561, 5004933.91485461127013 ], [ 529822.066553530050442, 5004944.841880859807134 ], [ 529813.942571870051324, 5004945.336936459876597 ], [ 529814.751891748979688, 5004953.628325180150568 ] ] ] ] } },
{ "type": "Feature", "properties": { "Layer": "0", "PaperSpace": null, "SubClasses": "AcDbEntity:AcDbHatch", "Linetype": null, "EntityHandle": "20061", "Text": "SOLID" }, "geometry": { "type": "MultiPolygon", "coordinates": [ [ [ [ 529765.347577448934317, 5004953.40738407894969 ], [ 529773.014572063926607, 5004958.231505380012095 ], [ 529776.713497685967013, 5004956.682450270280242 ], [ 529777.459062039968558, 5004955.141749350354075 ], [ 529789.258840632042848, 5004954.675020090304315 ], [ 529789.457159218029119, 5004955.931309469975531 ], [ 529801.367890972993337, 5004955.254045999608934 ], [ 529801.878006765968166, 5004958.689235858619213 ], [ 529781.746042786980979, 5004960.50548117980361 ], [ 529782.10416170291137, 5004972.894101508893073 ], [ 529790.431745397974737, 5004972.522164770402014 ], [ 529803.400363640859723, 5004970.694500730372965 ], [ 529803.224314718972892, 5004963.028213390149176 ], [ 529823.569234451977536, 5004961.024178449995816 ], [ 529824.294417910976335, 5004962.149634130299091 ], [ 529828.94013201596681, 5004961.37160762026906 ], [ 529830.004482754855417, 5004958.854788130149245 ], [ 529845.30829239601735, 5004954.860757789574564 ], [ 529844.329757565865293, 5004950.823454478755593 ], [ 529814.751891748979688, 5004953.628325180150568 ], [ 529813.942571870051324, 5004945.336936459876597 ], [ 529786.021664920845069, 5004948.216386528685689 ], [ 529779.07227644813247, 5004947.80603544972837 ], [ 529769.526402467978187, 5004938.307155978865921 ], [ 529768.071075825020671, 5004935.434110050089657 ], [ 529765.96845133707393, 5004933.246806980110705 ], [ 529760.377517121145502, 5004936.26453536003828 ], [ 529762.222632476943545, 5004946.460477700456977 ], [ 529766.316678882925771, 5004949.423671419732273 ], [ 529765.347577448934317, 5004953.40738407894969 ] ] ] ] } },
{ "type": "Feature", "properties": { "Layer": "0", "PaperSpace": null, "SubClasses": "AcDbEntity:AcDbHatch", "Linetype": null, "EntityHandle": "20092", "Text": "SOLID" }, "geometry": { "type": "MultiPolygon", "coordinates": [ [ [ [ 1089199.182775360066444, 4861392.063214629888535 ], [ 1089198.455454440088943, 4861395.962635840289295 ], [ 1089202.669003200018778, 4861396.750074359588325 ], [ 1089203.388262229971588, 4861392.849939210340381 ], [ 1089199.182775360066444, 4861392.063214629888535 ] ] ] ] } },
{ "type": "Feature", "properties": { "Layer": "0", "PaperSpace": null, "SubClasses": "AcDbEntity:AcDbHatch", "Linetype": null, "EntityHandle": "200BB", "Text": "SOLID" }, "geometry": { "type": "MultiPolygon", "coordinates": [ [ [ [ -3301591.39991202019155, 13252501.015433499589562 ], [ -3301575.579636, 13252492.467320799827576 ], [ -3301579.694466330111027, 13252484.880903700366616 ], [ -3301551.690709129907191, 13252469.762430399656296 ], [ -3301563.265286449808627, 13252448.411500200629234 ], [ -3301594.120218350086361, 13252465.058685500174761 ], [ -3301596.856976720970124, 13252460.007195699959993 ], [ -3301621.045635419897735, 13252473.063980799168348 ], [ -3301610.336661870125681, 13252492.824247600510716 ], [ -3301599.121099730022252, 13252486.764801599085331 ], [ -3301591.39991202019155, 13252501.015433499589562 ] ] ] ] } },
{ "type": "Feature", "properties": { "Layer": "травка_Ном._пера__20", "PaperSpace": null, "SubClasses": "AcDbEntity:AcDbHatch", "Linetype": null, "EntityHandle": "20201", "Text": "ANSI31" }, "geometry": { "type": "MultiPolygon", "coordinates": [ [ [ [ 338300.858602912805509, 6638451.037561758421361 ], [ 338701.556461512693204, 6638207.100109630264342 ], [ 338707.004810342972632, 6638193.137852674350142 ], [ 338575.776654391083866, 6637937.837006874382496 ], [ 338605.066479194094427, 6637902.893176827579737 ], [ 338613.872597309295088, 6637877.900781022384763 ], [ 338615.297635383612942, 6637853.257477681152523 ], [ 338609.325906060694251, 6637602.048954836092889 ], [ 338607.89489607262658, 6637526.54176726564765 ], [ 338602.836520572600421, 6637221.837877420708537 ], [ 338592.19675517390715, 6637188.971173304133117 ], [ 338583.512275468790904, 6637178.31730964500457 ], [ 338583.590944863506593, 6637174.830190290696919 ], [ 338585.410664065624587, 6637154.939457648433745 ], [ 338590.092311844811775, 6637130.654993330128491 ], [ 338592.150761078228243, 6637095.470438593067229 ], [ 338591.253619493509177, 6636871.318104907870293 ], [ 338592.066570921102539, 6636842.776684148237109 ], [ 338588.193823918874841, 6636671.057423817925155 ], [ 338580.004263822280336, 6636619.029875515960157 ], [ 338579.235226279182825, 6636598.702708639204502 ], [ 338366.298535446403548, 6636611.35171418171376 ], [ 338341.40436610870529, 6636613.851904866285622 ], [ 338322.013784455310088, 6636616.019794642925262 ], [ 338290.334976531215943, 6636621.609666072763503 ], [ 338260.232844838988967, 6636629.330739656463265 ], [ 338229.687102478113957, 6636638.991910996846855 ], [ 338185.805147434119135, 6636655.487697184085846 ], [ 337660.09089994430542, 6636922.401493659242988 ], [ 337651.005916660185903, 6636927.075522633269429 ], [ 337333.227989128383342, 6637089.846465655602515 ], [ 337012.930824429320637, 6637252.377219742164016 ], [ 337035.585911122791003, 6638589.881721541285515 ], [ 337032.77782075968571, 6638598.714609613642097 ], [ 337259.723509964591358, 6638683.948608760721982 ], [ 337289.13625163177494, 6638694.47141800634563 ], [ 337318.731960929872002, 6638699.950579222291708 ], [ 337329.42121472308645, 6638700.330236052162945 ], [ 337345.234068561287131, 6638699.446735313162208 ], [ 337357.655212122306693, 6638697.818794368766248 ], [ 337698.353843098971993, 6638610.2341413712129 ], [ 338263.889973879908212, 6638468.88104813080281 ], [ 338300.858602912805509, 6638451.037561758421361 ] ] ] ] } }
]
}
