{
"type": "FeatureCollection",
"name": "heavy_rain",
"crs": { "type": "name", "properties": { "name": "urn:ogc:def:crs:EPSG::32636" } },
"features": [
{ "type": "Feature", "properties": { "Field1": 1, "ОМЯ": "Сильный ливень", "Дата": "2024/08/10", "Происшествие": "Закрытие станции метро", "Адрес": "Санкт-Петербург вестибюль станции метро «Площадь Восстания»", "Широта": 59.931522, "Долгота": 30.360568, "Ссылка-Заголовок": "https://www.fontanka.ru/2024/08/10/73944062/", "Доп. ссылка": null, "Доп. информация": null }, "geometry": { "type": "Point", "coordinates": [ 352500.43318331008777, 6646725.989374671131372 ] } },
{ "type": "Feature", "properties": { "Field1": null, "ОМЯ": null, "Дата": null, "Происшествие": "Упало дерево, повреждена машина, перекрытие проезжей части", "Адрес": "Санкт-Петербург пр. Энгельса, 70/1", "Широта": 60.0187809, "Долгота": 30.3209536, "Ссылка-Заголовок": "https://vk.com/wall-68471405_19321467", "Доп. ссылка": null, "Доп. информация": null }, "geometry": { "type": "Point", "coordinates": [ 350680.940298052097205, 6656527.425273352302611 ] } },
{ "type": "Feature", "properties": { "Field1": null, "ОМЯ": null, "Дата": null, "Происшествие": "Упали деревья", "Адрес": "Санкт-Петербург ул. Латышских стрелков, 9к2", "Широта": 59.927457, "Долгота": 30.465463, "Ссылка-Заголовок": "https://vk.com/wall-68471405_19321188", "Доп. ссылка": null, "Доп. информация": null }, "geometry": { "type": "Point", "coordinates": [ 358343.010562808136456, 6646044.371546203270555 ] } },
{ "type": "Feature", "properties": { "Field1": null, "ОМЯ": null, "Дата": null, "Происшествие": "Затопило улицу", "Адрес": "Санкт-Петербург Петергофское шоссе", "Широта": 59.8476948, "Долгота": 30.1522973, "Ссылка-Заголовок": "https://vk.com/wall-68471405_19321186", "Доп. ссылка": null, "Доп. информация": null }, "geometry": { "type": "Point", "coordinates": [ 340464.762018313398585, 6637878.725556530058384 ] } },
{ "type": "Feature", "properties": { "Field1": null, "ОМЯ": null, "Дата": null, "Происшествие": "Упало дерево, повреждена машина", "Адрес": "Санкт-Петербург ул. Чудновского, 1", "Широта": 59.9310982, "Долгота": 30.4757668, "Ссылка-Заголовок": "https://vk.com/wall-68471405_19321183", "Доп. ссылка": null, "Доп. информация": null }, "geometry": { "type": "Point", "coordinates": [ 358934.174174748011865, 6646427.675216593779624 ] } },
{ "type": "Feature", "properties": { "Field1": 2, "ОМЯ": "Сильный ливень", "Дата": "2024/08/03", "Происшествие": "Затопило подземную парковку", "Адрес": "Санкт-Петербург ул. Барочная, 12", "Широта": 59.9694631, "Долгота": 30.2873153, "Ссылка-Заголовок": "https://www.fontanka.ru/2024/08/03/73914872/", "Доп. ссылка": null, "Доп. информация": null }, "geometry": { "type": "Point", "coordinates": [ 348581.546773195266724, 6651114.535597361624241 ] } },
{ "type": "Feature", "properties": { "Field1": 3, "ОМЯ": "Сильный ливень", "Дата": "2021/08/03", "Происшествие": "Повреждены 7 легковых автомобилей, 19 падений деревьев, 1 падение слабо закреплённой конструкции, повреждены 2 кровли жилых домов, 19 подтоплений подвальных помещений", "Адрес": "Санкт-Петербург Пр. Королева", "Широта": 60.017459, "Долгота": 30.258762, "Ссылка-Заголовок": "https://ria.ru/20210803/liven-1744104694.html", "Доп. ссылка": null, "Доп. информация": null }, "geometry": { "type": "Point", "coordinates": [ 347209.842999260232318, 6656522.364509075880051 ] } },
{ "type": "Feature", "properties": { "Field1": null, "ОМЯ": null, "Дата": null, "Происшествие": null, "Адрес": "Санкт-Петербург ул. Сизова", "Широта": 60.008248, "Долгота": 30.274312, "Ссылка-Заголовок": "https://ria.ru/20210803/liven-1744104694.html", "Доп. ссылка": null, "Доп. информация": null }, "geometry": { "type": "Point", "coordinates": [ 348033.959482103120536, 6655461.305687527172267 ] } },
{ "type": "Feature", "properties": { "Field1": null, "ОМЯ": null, "Дата": null, "Происшествие": null, "Адрес": "Санкт-Петербург ул. Уточкина", "Широта": 60.010749, "Долгота": 30.262463, "Ссылка-Заголовок": "https://ria.ru/20210803/liven-1744104694.html", "Доп. ссылка": null, "Доп. информация": null }, "geometry": { "type": "Point", "coordinates": [ 347385.118268953403458, 6655766.966206843964756 ] } },
{ "type": "Feature", "properties": { "Field1": null, "ОМЯ": null, "Дата": null, "Происшествие": "Затопление улицы", "Адрес": "Санкт-Петербург пр. Комендантский", "Широта": 60.036605, "Долгота": 30.225776, "Ссылка-Заголовок": "https://ria.ru/20210803/liven-1744104694.html", "Доп. ссылка": null, "Доп. информация": null }, "geometry": { "type": "Point", "coordinates": [ 345461.448586165672168, 6658730.047666815109551 ] } },
{ "type": "Feature", "properties": { "Field1": 4, "ОМЯ": "Циклон \"Делия\", сильный ветер, ливень", "Дата": "2024/07/07", "Происшествие": "20 минут взлет и посадка самолетов не осуществялись", "Адрес": "Санкт-Петербург аэропорт Пулково", "Широта": 59.8029127, "Долгота": 30.2678391, "Ссылка-Заголовок": "https://www.fontanka.ru/2024/07/07/73801439/", "Доп. ссылка": null, "Доп. информация": null }, "geometry": { "type": "Point", "coordinates": [ 346729.582548779551871, 6632621.72981658577919 ] } },
{ "type": "Feature", "properties": { "Field1": null, "ОМЯ": null, "Дата": null, "Происшествие": "Дерево упало на три автомобиля", "Адрес": "Санкт-Петербург улица Бабушкина, 111", "Широта": 59.8657059, "Долгота": 30.4521482, "Ссылка-Заголовок": "https://www.fontanka.ru/2024/07/08/73802198/", "Доп. ссылка": null, "Доп. информация": null }, "geometry": { "type": "Point", "coordinates": [ 357334.475319758988917, 6639199.351422428153455 ] } },
{ "type": "Feature", "properties": { "Field1": null, "ОМЯ": null, "Дата": null, "Происшествие": "дерево упало на автомобиль", "Адрес": "Санкт-Петербург улица Шелгунова, 14", "Широта": 59.8653974, "Долгота": 30.4516356, "Ссылка-Заголовок": "https://www.fontanka.ru/2024/07/08/73802198/", "Доп. ссылка": null, "Доп. информация": null }, "geometry": { "type": "Point", "coordinates": [ 357304.460181052971166, 6639166.11638312228024 ] } },
{ "type": "Feature", "properties": { "Field1": null, "ОМЯ": null, "Дата": null, "Происшествие": "Обвалились куски фасада здания", "Адрес": "Санкт-Петербург улица Куйбышева, 5", "Широта": 59.954733, "Долгота": 30.327406, "Ссылка-Заголовок": "https://www.fontanka.ru/2024/07/08/73802198/", "Доп. ссылка": null, "Доп. информация": null }, "geometry": { "type": "Point", "coordinates": [ 350752.285098225111142, 6649383.894716925919056 ] } },
{ "type": "Feature", "properties": { "Field1": null, "ОМЯ": null, "Дата": null, "Происшествие": "Закрытие станции метро", "Адрес": "Санкт-Петербург вестибюль станции метро «Площадь Восстания»", "Широта": 59.93089, "Долгота": 30.3611051, "Ссылка-Заголовок": "https://www.fontanka.ru/2024/07/07/73801463/", "Доп. ссылка": null, "Доп. информация": null }, "geometry": { "type": "Point", "coordinates": [ 352527.631466043705586, 6646654.445967622101307 ] } },
{ "type": "Feature", "properties": { "Field1": 5, "ОМЯ": "Сильный ливень", "Дата": "2013/08/15", "Происшествие": "Затоплена улица", "Адрес": "Санкт-Петербург пр. Испытателей, участок магистрали от Светлановской пл. до Коломяжского пр.", "Широта": 60.003127, "Долгота": 30.29771, "Ссылка-Заголовок": "https://tvspb.ru/news/2013/08/15/iz-za-livnya-prospekt-ispyitatelej-zatopilo/", "Доп. ссылка": null, "Доп. информация": "41 мм (http://www.meteo.nw.ru/articles/index.php?id=733)" }, "geometry": { "type": "Point", "coordinates": [ 349314.688245737517718, 6654837.770050086081028 ] } },
{ "type": "Feature", "properties": { "Field1": 6, "ОМЯ": "Сильный ливень, град", "Дата": "2015/07/17", "Происшествие": "Затопление улицы", "Адрес": "Санкт-Петербург пр. Испытателей", "Широта": 60.0031295, "Долгота": 30.2977381, "Ссылка-Заголовок": "https://sanktpeterburg.bezformata.com/listnews/vipalo-rekordnoe-kolichestvo-osadkov/35515525/", "Доп. ссылка": null, "Доп. информация": null }, "geometry": { "type": "Point", "coordinates": [ 349316.265953336493112, 6654837.984288397245109 ] } },
{ "type": "Feature", "properties": { "Field1": null, "ОМЯ": null, "Дата": null, "Происшествие": "Затопление улицы", "Адрес": "Санкт-Петербург Коломяжский пр.", "Широта": 60.003223, "Долгота": 30.297677, "Ссылка-Заголовок": null, "Доп. ссылка": null, "Доп. информация": null }, "geometry": { "type": "Point", "coordinates": [ 349313.285567941551562, 6654848.530601114965975 ] } },
{ "type": "Feature", "properties": { "Field1": null, "ОМЯ": null, "Дата": null, "Происшествие": "Затоплена наземная парковка", "Адрес": "Санкт-Петербург угол пр. Испытателей и Коломяжского пр.", "Широта": 60.003127, "Долгота": 30.29771, "Ссылка-Заголовок": "https://sanktpeterburg.bezformata.com/listnews/proshyol-moshnij-liven-s-gradom/35512379/", "Доп. ссылка": null, "Доп. информация": null }, "geometry": { "type": "Point", "coordinates": [ 349314.688245737517718, 6654837.770050086081028 ] } },
{ "type": "Feature", "properties": { "Field1": null, "ОМЯ": null, "Дата": null, "Происшествие": "Затопление здания", "Адрес": "Санкт-Петербург Выборгское шоссе, 11.", "Широта": 60.047145, "Долгота": 30.315036, "Ссылка-Заголовок": "https://www.dp.ru/a/2015/07/17/V_rezultate_potopa_strad", "Доп. ссылка": "https://vk.com/wall-68471405_1243991", "Доп. информация": null }, "geometry": { "type": "Point", "coordinates": [ 350479.501088218414225, 6659697.926499302498996 ] } },
{ "type": "Feature", "properties": { "Field1": null, "ОМЯ": null, "Дата": null, "Происшествие": "Затопление здания, закрыт магазин", "Адрес": "Санкт-Петербург ул. Коллонтай, 10", "Широта": 59.9167685, "Долгота": 30.4523157, "Ссылка-Заголовок": "https://www.dp.ru/a/2015/07/17/V_rezultate_potopa_strad", "Доп. ссылка": null, "Доп. информация": null }, "geometry": { "type": "Point", "coordinates": [ 357562.630027380539104, 6644882.829313437454402 ] } },
{ "type": "Feature", "properties": { "Field1": null, "ОМЯ": null, "Дата": null, "Происшествие": "Затопление здания (первый этаж)", "Адрес": "Санкт-Петербург Гражданский просп., 41, корп. 2Б", "Широта": 60.0120255, "Долгота": 30.3987636, "Ссылка-Заголовок": "https://www.dp.ru/a/2015/07/17/V_rezultate_potopa_strad", "Доп. ссылка": "https://vk.com/wall-94076846_22777", "Доп. информация": null }, "geometry": { "type": "Point", "coordinates": [ 354986.646402334677987, 6655602.319447166286409 ] } },
{ "type": "Feature", "properties": { "Field1": null, "ОМЯ": null, "Дата": null, "Происшествие": "Подтопление здания (цокольный этаж)", "Адрес": "Санкт-Петербург пр. Просвещения, 19", "Широта": 60.0524595, "Долгота": 30.3324096, "Ссылка-Заголовок": "https://www.dp.ru/a/2015/07/17/V_rezultate_potopa_strad", "Доп. ссылка": null, "Доп. информация": null }, "geometry": { "type": "Point", "coordinates": [ 351470.532501990499441, 6660250.302826780825853 ] } },
{ "type": "Feature", "properties": { "Field1": null, "ОМЯ": null, "Дата": null, "Происшествие": "Затопление здания", "Адрес": "Санкт-Петербург пр. Большевиков, 18", "Широта": 59.9086898, "Долгота": 30.4835821, "Ссылка-Заголовок": "https://www.dp.ru/a/2015/07/17/V_rezultate_potopa_strad", "Доп. ссылка": null, "Доп. информация": null }, "geometry": { "type": "Point", "coordinates": [ 359275.930803767056204, 6643916.698921075090766 ] } },
{ "type": "Feature", "properties": { "Field1": null, "ОМЯ": null, "Дата": null, "Происшествие": "Затопление улицы, пробка", "Адрес": "Санкт-Петербург пр. Просвещения", "Широта": 60.045758, "Долгота": 30.369183, "Ссылка-Заголовок": "https://sanktpeterburg.bezformata.com/listnews/livnya-peterburg-zastryal-v-probkah/35515172/", "Доп. ссылка": "https://vk.com/wall-94076846_22804", "Доп. информация": null }, "geometry": { "type": "Point", "coordinates": [ 353487.62343230296392, 6659422.300210569053888 ] } },
{ "type": "Feature", "properties": { "Field1": null, "ОМЯ": null, "Дата": null, "Происшествие": "Затопление улицы, пробка", "Адрес": "Санкт-Петербург пр. Энгельса", "Широта": 60.051216, "Долгота": 30.333906, "Ссылка-Заголовок": "https://sanktpeterburg.bezformata.com/listnews/livnya-peterburg-zastryal-v-probkah/35515172/", "Доп. ссылка": null, "Доп. информация": null }, "geometry": { "type": "Point", "coordinates": [ 351548.236107066448312, 6660108.529677150771022 ] } },
{ "type": "Feature", "properties": { "Field1": null, "ОМЯ": null, "Дата": null, "Происшествие": "Пробка", "Адрес": "Санкт-Петербург Невский пр.", "Широта": 59.932464, "Долгота": 30.349258, "Ссылка-Заголовок": "https://sanktpeterburg.bezformata.com/listnews/livnya-peterburg-zastryal-v-probkah/35515172/", "Доп. ссылка": null, "Доп. информация": null }, "geometry": { "type": "Point", "coordinates": [ 351872.820880429178942, 6646856.101496114395559 ] } },
{ "type": "Feature", "properties": { "Field1": null, "ОМЯ": null, "Дата": null, "Происшествие": "Пробка", "Адрес": "Санкт-Петербург Литейный пр.", "Широта": 59.941398, "Долгота": 30.348576, "Ссылка-Заголовок": "https://sanktpeterburg.bezformata.com/listnews/livnya-peterburg-zastryal-v-probkah/35515172/", "Доп. ссылка": null, "Доп. информация": null }, "geometry": { "type": "Point", "coordinates": [ 351874.579047591309063, 6647852.047153223305941 ] } },
{ "type": "Feature", "properties": { "Field1": null, "ОМЯ": null, "Дата": null, "Происшествие": "Пробка", "Адрес": "Санкт-Петербург набережная Фонтанки", "Широта": 59.920433, "Долгота": 30.31082, "Ссылка-Заголовок": "https://sanktpeterburg.bezformata.com/listnews/livnya-peterburg-zastryal-v-probkah/35515172/", "Доп. ссылка": null, "Доп. информация": null }, "geometry": { "type": "Point", "coordinates": [ 349671.201093718234915, 6645603.642843556590378 ] } },
{ "type": "Feature", "properties": { "Field1": null, "ОМЯ": null, "Дата": null, "Происшествие": "Отключение электроснабжения", "Адрес": "Санкт-Петербург Невский район", "Широта": 59.8820341, "Долгота": 30.4700626, "Ссылка-Заголовок": "https://sanktpeterburg.bezformata.com/listnews/chast-nevskogo-rajona-peterburga/35515183/", "Доп. ссылка": null, "Доп. информация": null }, "geometry": { "type": "Point", "coordinates": [ 358406.716132152127102, 6640978.416118818335235 ] } },
{ "type": "Feature", "properties": { "Field1": null, "ОМЯ": null, "Дата": null, "Происшествие": "Затопило дом", "Адрес": "Санкт-Петербург пр. Просвещения, 75", "Широта": 60.0388261, "Долгота": 30.4005519, "Ссылка-Заголовок": "https://vk.com/wall-68471405_1245948", "Доп. ссылка": null, "Доп. информация": null }, "geometry": { "type": "Point", "coordinates": [ 355203.628327061189339, 6658581.594303224235773 ] } },
{ "type": "Feature", "properties": { "Field1": null, "ОМЯ": null, "Дата": null, "Происшествие": "Затопление улицы", "Адрес": "Санкт-Петербург Гражданский пр., 114", "Широта": 60.033145, "Долгота": 30.4166696, "Ссылка-Заголовок": "https://vk.com/wall-68471405_1245635", "Доп. ссылка": null, "Доп. информация": null }, "geometry": { "type": "Point", "coordinates": [ 356076.404371251701377, 6657914.030346240848303 ] } },
{ "type": "Feature", "properties": { "Field1": null, "ОМЯ": null, "Дата": null, "Происшествие": "Затопление улицы", "Адрес": "Санкт-Петербург Домостроительная ул.", "Широта": 60.0669508, "Долгота": 30.3696541, "Ссылка-Заголовок": "https://vk.com/wall-94076846_22959", "Доп. ссылка": null, "Доп. информация": null }, "geometry": { "type": "Point", "coordinates": [ 353607.756400918820873, 6661780.222472758032382 ] } },
{ "type": "Feature", "properties": { "Field1": null, "ОМЯ": null, "Дата": null, "Происшествие": "Затопление улицы", "Адрес": "Санкт-Петербург ул. Ушинсокго", "Широта": 60.036695, "Долгота": 30.4109271, "Ссылка-Заголовок": "https://vk.com/wall-94076846_22957", "Доп. ссылка": "https://vk.com/wall-94076846_22954", "Доп. информация": null }, "geometry": { "type": "Point", "coordinates": [ 355772.064723878866062, 6658321.700180296786129 ] } },
{ "type": "Feature", "properties": { "Field1": null, "ОМЯ": null, "Дата": null, "Происшествие": "Затопление улицы", "Адрес": "Санкт-Петербург Гражданский пр.", "Широта": 60.019666, "Долгота": 30.40446, "Ссылка-Заголовок": "https://vk.com/wall-94076846_22956", "Доп. ссылка": "https://vk.com/wall-94076846_22831", "Доп. информация": null }, "geometry": { "type": "Point", "coordinates": [ 355337.493123505089898, 6656440.311679466627538 ] } },
{ "type": "Feature", "properties": { "Field1": null, "ОМЯ": null, "Дата": null, "Происшествие": "Затопление здания", "Адрес": "Санкт-Петербург просп. Большевиков, 10, корп. 1", "Широта": 59.912094, "Долгота": 30.4801041, "Ссылка-Заголовок": "https://vk.com/wall-94076846_22952", "Доп. ссылка": null, "Доп. информация": null }, "geometry": { "type": "Point", "coordinates": [ 359095.924160799302626, 6644303.027957490645349 ] } },
{ "type": "Feature", "properties": { "Field1": null, "ОМЯ": null, "Дата": null, "Происшествие": "Затопление здания", "Адрес": "Санкт-Петербург пр. Лунчарского", "Широта": 60.034524, "Долгота": 30.373567, "Ссылка-Заголовок": "https://vk.com/wall-94076846_22952", "Доп. ссылка": null, "Доп. информация": null }, "geometry": { "type": "Point", "coordinates": [ 353681.99008448375389, 6658162.138113886117935 ] } },
{ "type": "Feature", "properties": { "Field1": null, "ОМЯ": null, "Дата": null, "Происшествие": "Затопление улицы", "Адрес": "Санкт-Петербург ул. Областная", "Широта": 59.915696, "Долгота": 30.504494, "Ссылка-Заголовок": "https://vk.com/wall-94076846_22830", "Доп. ссылка": null, "Доп. информация": null }, "geometry": { "type": "Point", "coordinates": [ 360474.414124087896198, 6644652.315764530561864 ] } },
{ "type": "Feature", "properties": { "Field1": null, "ОМЯ": null, "Дата": null, "Происшествие": "Затопление улицы", "Адрес": "Санкт-Петербург Ладожская ул.", "Широта": 59.931448, "Долгота": 30.442417, "Ссылка-Заголовок": "https://vk.com/wall-68471405_1244931", "Доп. ссылка": null, "Доп. информация": null }, "geometry": { "type": "Point", "coordinates": [ 357072.550802528101485, 6646538.164118994027376 ] } },
{ "type": "Feature", "properties": { "Field1": null, "ОМЯ": null, "Дата": null, "Происшествие": "Затопление улицы", "Адрес": "Санкт-Петербург Киришская ул.", "Широта": 60.0321274, "Долгота": 30.4261528, "Ссылка-Заголовок": "https://vk.com/wall-68471405_1243726", "Доп. ссылка": null, "Доп. информация": null }, "geometry": { "type": "Point", "coordinates": [ 356600.146896238264162, 6657780.153496962040663 ] } },
{ "type": "Feature", "properties": { "Field1": null, "ОМЯ": null, "Дата": null, "Происшествие": "Затопление улицы", "Адрес": "Санкт-Петербург пр. Науки", "Широта": 60.0113487, "Долгота": 30.4044737, "Ссылка-Заголовок": "https://vk.com/wall-68471405_1243703", "Доп. ссылка": null, "Доп. информация": null }, "geometry": { "type": "Point", "coordinates": [ 355301.90525099937804, 6655514.47642542142421 ] } },
{ "type": "Feature", "properties": { "Field1": null, "ОМЯ": null, "Дата": null, "Происшествие": "Затопление улицы", "Адрес": "Санкт-Петербург ул.Асафьева", "Широта": 60.048373, "Долгота": 30.324734, "Ссылка-Заголовок": "https://vk.com/wall-68471405_1244134", "Доп. ссылка": null, "Доп. информация": null }, "geometry": { "type": "Point", "coordinates": [ 351024.900677813275252, 6659812.716000673361123 ] } },
{ "type": "Feature", "properties": { "Field1": null, "ОМЯ": null, "Дата": null, "Происшествие": "Затопление улицы", "Адрес": "Санкт-Петербург ул. Энгельса", "Широта": 59.832959, "Долгота": 30.101485, "Ссылка-Заголовок": "https://vk.com/wall-68471405_1244134", "Доп. ссылка": null, "Доп. информация": null }, "geometry": { "type": "Point", "coordinates": [ 337547.530359790660441, 6636362.195513062179089 ] } },
{ "type": "Feature", "properties": { "Field1": null, "ОМЯ": null, "Дата": null, "Происшествие": "Затопление улицы", "Адрес": "Санкт-Петербург перекрёсток пр. Просвещения и ул. Ивана Фомина", "Широта": 60.050358, "Долгота": 30.347181, "Ссылка-Заголовок": "https://vk.com/wall-68471405_1242834", "Доп. ссылка": null, "Доп. информация": null }, "geometry": { "type": "Point", "coordinates": [ 352283.306477604550309, 6659983.28785861749202 ] } },
{ "type": "Feature", "properties": { "Field1": null, "ОМЯ": null, "Дата": null, "Происшествие": "Затопило  наземную парковку", "Адрес": "Санкт-Петербург Выборгское шоссе, 216", "Широта": 60.0759024, "Долгота": 30.2719697, "Ссылка-Заголовок": "https://vk.com/wall-68471405_1242717", "Доп. ссылка": null, "Доп. информация": null }, "geometry": { "type": "Point", "coordinates": [ 348214.289670960744843, 6662996.973888113163412 ] } },
{ "type": "Feature", "properties": { "Field1": null, "ОМЯ": null, "Дата": null, "Происшествие": "Затопление улицы", "Адрес": "Санкт-Петербург Камышовая ул.", "Широта": 60.00826, "Долгота": 30.229702, "Ссылка-Заголовок": "https://vk.com/wall-68471405_1242670", "Доп. ссылка": null, "Доп. информация": null }, "geometry": { "type": "Point", "coordinates": [ 345547.823971251724288, 6655565.995465601794422 ] } },
{ "type": "Feature", "properties": { "Field1": null, "ОМЯ": null, "Дата": null, "Происшествие": "Затопление улицы", "Адрес": "Санкт-Петербург Яхтенная ул.", "Широта": 59.996592, "Долгота": 30.220278, "Ссылка-Заголовок": "https://vk.com/wall-68471405_1242670", "Доп. ссылка": null, "Доп. информация": null }, "geometry": { "type": "Point", "coordinates": [ 344968.005858056829311, 6654289.369875281117857 ] } },
{ "type": "Feature", "properties": { "Field1": null, "ОМЯ": null, "Дата": null, "Происшествие": "Затопление улицы", "Адрес": "Санкт-Петербург ул. Тельмана", "Широта": 59.8913929, "Долгота": 30.4714099, "Ссылка-Заголовок": "https://vk.com/wall-68471405_1244917", "Доп. ссылка": null, "Доп. информация": null }, "geometry": { "type": "Point", "coordinates": [ 358521.891797662014142, 6642017.282128288410604 ] } },
{ "type": "Feature", "properties": { "Field1": null, "ОМЯ": null, "Дата": null, "Происшествие": "Затопление улицы", "Адрес": "Санкт-Петербург ул. Гидротехников", "Широта": 60.0083712, "Долгота": 30.3808162, "Ссылка-Заголовок": "https://vk.com/wall-68471405_1244913", "Доп. ссылка": null, "Доп. информация": null }, "geometry": { "type": "Point", "coordinates": [ 353970.348925062164199, 6655235.053107604384422 ] } },
{ "type": "Feature", "properties": { "Field1": null, "ОМЯ": null, "Дата": null, "Происшествие": "Затопление улицы", "Адрес": "Санкт-Петербург угол ул. Черкасова и ул. Киришская", "Широта": 60.0271153, "Долгота": 30.4233993, "Ссылка-Заголовок": "https://vk.com/wall-68471405_1244540", "Доп. ссылка": null, "Доп. информация": null }, "geometry": { "type": "Point", "coordinates": [ 356425.04064485791605, 6657228.222844511270523 ] } },
{ "type": "Feature", "properties": { "Field1": null, "ОМЯ": null, "Дата": null, "Происшествие": "Затопление улицы", "Адрес": "Санкт-Петербург пр. Культуры", "Широта": 60.0542663, "Долгота": 30.3818334, "Ссылка-Заголовок": "https://vk.com/wall-68471405_1243965", "Доп. ссылка": null, "Доп. информация": null }, "geometry": { "type": "Point", "coordinates": [ 354229.411750014289282, 6660341.391205185092986 ] } },
{ "type": "Feature", "properties": { "Field1": null, "ОМЯ": null, "Дата": null, "Происшествие": "Затопление улицы", "Адрес": "Санкт-Петербург площадь Калинина", "Широта": 59.970491, "Долгота": 30.3856097, "Ссылка-Заголовок": "https://vk.com/wall-68471405_1243765", "Доп. ссылка": null, "Доп. информация": null }, "geometry": { "type": "Point", "coordinates": [ 354070.795560172933619, 6651008.047548892907798 ] } },
{ "type": "Feature", "properties": { "Field1": null, "ОМЯ": null, "Дата": null, "Происшествие": "Затопление улицы", "Адрес": "Санкт-Петербург Богатырский пр.", "Широта": 60.0028409, "Долгота": 30.253222, "Ссылка-Заголовок": "https://vk.com/wall-68471405_1242682", "Доп. ссылка": null, "Доп. информация": null }, "geometry": { "type": "Point", "coordinates": [ 346833.564856249082368, 6654908.12784503493458 ] } },
{ "type": "Feature", "properties": { "Field1": null, "ОМЯ": null, "Дата": null, "Происшествие": "Затопление улицы, наземной парковки", "Адрес": "Санкт-Петербург Коломяжский проспект, 17к2", "Широта": 60.0043054, "Долгота": 30.3005953, "Ссылка-Заголовок": "https://vk.com/wall-68471405_1242666", "Доп. ссылка": null, "Доп. информация": null }, "geometry": { "type": "Point", "coordinates": [ 349480.87479657237418, 6654962.362279458902776 ] } },
{ "type": "Feature", "properties": { "Field1": null, "ОМЯ": null, "Дата": null, "Происшествие": "Прекращение маршрутов троллейбусов и трамваев", "Адрес": "Санкт-Петербург \"Придорожная аллея\" (трамвайные маршруты № 21, 100), \"Проспект Культуры\" (трамвайные маршруты № 20, 58), пр. Просвещения (трамвайные маршруты № 58, 100), пр. Науки (трамвайные маршруты №№ 38, 55, 57), ул. Есенина (троллейбусный маршрут № 13), пр. Испытателей у Коломяжского пр., около Удельного парка (троллейбусные маршруты № 40, 50, трамвайные маршруты № 47, 55).", "Широта": null, "Долгота": null, "Ссылка-Заголовок": "https://sanktpeterburg.bezformata.com/listnews/dvizhenie-elektrotransporta/35515051/", "Доп. ссылка": null, "Доп. информация": null }, "geometry": { "type": "Point", "coordinates": [ -3395506.464874160476029, 0.0 ] } },
{ "type": "Feature", "properties": { "Field1": null, "ОМЯ": null, "Дата": null, "Происшествие": "Провал на дороге", "Адрес": "Санкт-Петербург Октябрьская набережная, 118", "Широта": 59.8623935, "Долгота": 30.4951822, "Ссылка-Заголовок": "https://bloknot.ru/proisshestviya/samosval-ushel-pod-zemlyu-v-pitere-267947.html", "Доп. ссылка": null, "Доп. информация": null }, "geometry": { "type": "Point", "coordinates": [ 359729.422510372940451, 6638738.71950205322355 ] } },
{ "type": "Feature", "properties": { "Field1": 7, "ОМЯ": "Сильный дождь", "Дата": "2012/08/23", "Происшествие": "Затопление улицы, коммунальная авария (не справилась ливневая система)", "Адрес": "Санкт-Петербург Богатырский пр., пр. Сизова", "Широта": 59.9994001, "Долгота": 30.2698558, "Ссылка-Заголовок": "https://gazeta.spb.ru/808129-0/", "Доп. ссылка": "https://neva.today/news/2012/8/23/328733?ysclid=m87uegcmoc788341061", "Доп. информация": null }, "geometry": { "type": "Point", "coordinates": [ 347744.934021428809501, 6654486.742993645370007 ] } },
{ "type": "Feature", "properties": { "Field1": null, "ОМЯ": null, "Дата": null, "Происшествие": "Затопление улицы, коммунальная авария (не справилась ливневая система)", "Адрес": "Санкт-Петербург пересечение 2-го Муринского и Институтского пр-в", "Широта": 60.00057, "Долгота": 30.34795, "Ссылка-Заголовок": "https://gazeta.spb.ru/808093-0/", "Доп. ссылка": null, "Доп. информация": null }, "geometry": { "type": "Point", "coordinates": [ 352103.747317843663041, 6654439.746603839099407 ] } },
{ "type": "Feature", "properties": { "Field1": 8, "ОМЯ": "Сильный дождь", "Дата": "2012/08/27", "Происшествие": "Затопление улицы", "Адрес": "Санкт-Петербург м. Выборсгкая, Большая Московская улица, 2/1", "Широта": 59.9274714, "Долгота": 30.3482071, "Ссылка-Заголовок": "https://mr-7.ru/articles/2012/08/27/peterburg-zatopilo-iz-za-nebyvalykh-osadkov?ysclid=m87ueemm4x279006409", "Доп. ссылка": null, "Доп. информация": null }, "geometry": { "type": "Point", "coordinates": [ 351791.84184938413091, 6646302.742066982202232 ] } },
{ "type": "Feature", "properties": { "Field1": null, "ОМЯ": null, "Дата": null, "Происшествие": "Затопление улицы", "Адрес": "Санкт-Петербург ул. Марата", "Широта": 59.921547, "Долгота": 30.345486, "Ссылка-Заголовок": "https://mr-7.ru/articles/2012/08/27/peterburg-zatopilo-iz-za-nebyvalykh-osadkov?ysclid=m87ueemm4x279006409", "Доп. ссылка": null, "Доп. информация": null }, "geometry": { "type": "Point", "coordinates": [ 351613.357325298362412, 6645649.411759039387107 ] } },
{ "type": "Feature", "properties": { "Field1": null, "ОМЯ": null, "Дата": null, "Происшествие": "Затопление улицы", "Адрес": "Санкт-Петербург пр. Космонавтов", "Широта": 59.8505, "Долгота": 30.353292, "Ссылка-Заголовок": "https://mr-7.ru/articles/2012/08/27/peterburg-zatopilo-iz-za-nebyvalykh-osadkov?ysclid=m87ueemm4x279006409", "Доп. ссылка": null, "Доп. информация": null }, "geometry": { "type": "Point", "coordinates": [ 351733.334820008778479, 6637723.924368250183761 ] } },
{ "type": "Feature", "properties": { "Field1": null, "ОМЯ": null, "Дата": null, "Происшествие": "Затопление улицы", "Адрес": "Санкт-Петербург Благодатная ул.", "Широта": 59.876052, "Долгота": 30.324797, "Ссылка-Заголовок": "https://mr-7.ru/articles/2012/08/27/peterburg-zatopilo-iz-za-nebyvalykh-osadkov?ysclid=m87ueemm4x279006409", "Доп. ссылка": null, "Доп. информация": null }, "geometry": { "type": "Point", "coordinates": [ 350252.564264387881849, 6640632.123565198853612 ] } },
{ "type": "Feature", "properties": { "Field1": null, "ОМЯ": null, "Дата": null, "Происшествие": "Затопление улицы, пробка", "Адрес": "Санкт-Петербург въезд на КАД с Пулковского шоссе на Таллинское по направлению в город", "Широта": 59.811017, "Долгота": 30.323891, "Ссылка-Заголовок": "https://mr-7.ru/articles/2012/08/27/peterburg-zatopilo-iz-za-nebyvalykh-osadkov?ysclid=m87ueemm4x279006409", "Доп. ссылка": null, "Доп. информация": null }, "geometry": { "type": "Point", "coordinates": [ 349909.316492200247012, 6633395.458911083638668 ] } },
{ "type": "Feature", "properties": { "Field1": null, "ОМЯ": null, "Дата": null, "Происшествие": "Затопление улицы, пробка", "Адрес": "Санкт-Петербург Митрофаньевское шоссе", "Широта": 59.8923489, "Долгота": 30.3014205, "Ссылка-Заголовок": "https://mr-7.ru/articles/2012/08/27/peterburg-zatopilo-iz-za-nebyvalykh-osadkov?ysclid=m87ueemm4x279006409", "Доп. ссылка": null, "Доп. информация": null }, "geometry": { "type": "Point", "coordinates": [ 349018.473374292661902, 6642499.135924810543656 ] } },
{ "type": "Feature", "properties": { "Field1": null, "ОМЯ": null, "Дата": null, "Происшествие": "Затопление улицы, образование \"озера\"", "Адрес": "Санкт-Петербург Московское шоссе (в районе Московского шоссе, 37)", "Широта": 59.81758, "Долгота": 30.36719, "Ссылка-Заголовок": "https://mr-7.ru/articles/2012/08/27/peterburg-zatopilo-iz-za-nebyvalykh-osadkov?ysclid=m87ueemm4x279006409", "Доп. ссылка": null, "Доп. информация": null }, "geometry": { "type": "Point", "coordinates": [ 352365.943003490334377, 6634028.679226229898632 ] } },
{ "type": "Feature", "properties": { "Field1": null, "ОМЯ": null, "Дата": null, "Происшествие": "Затопление улицы, прекращение движение трамваев", "Адрес": "Санкт-Петербург Витебский пр.", "Широта": 59.8279084, "Долгота": 30.3750604, "Ссылка-Заголовок": "https://mr-7.ru/articles/2012/08/27/peterburg-zatopilo-iz-za-nebyvalykh-osadkov?ysclid=m87ueemm4x279006409", "Доп. ссылка": null, "Доп. информация": null }, "geometry": { "type": "Point", "coordinates": [ 352852.683016010734718, 6635160.791000570170581 ] } },
{ "type": "Feature", "properties": { "Field1": 9, "ОМЯ": "Сильный дождь", "Дата": "2013/07/01", "Происшествие": "Затопление улицы", "Адрес": "Санкт-Петербург Парашютная ул.", "Широта": 60.027503, "Долгота": 30.256831, "Ссылка-Заголовок": "https://mr-7.ru/articles/2013/07/01/peterburg-plyvet-i-stoit-v-probkakh-iz-za-silneishego-livnia", "Доп. ссылка": null, "Доп. информация": null }, "geometry": { "type": "Point", "coordinates": [ 347148.653869494795799, 6657644.767343696206808 ] } },
{ "type": "Feature", "properties": { "Field1": null, "ОМЯ": null, "Дата": null, "Происшествие": "Затопление улицы", "Адрес": "Санкт-Петербург пр. Энергетиков", "Широта": 59.952714, "Долгота": 30.436898, "Ссылка-Заголовок": "https://mr-7.ru/articles/2013/07/01/peterburg-plyvet-i-stoit-v-probkakh-iz-za-silneishego-livnia", "Доп. ссылка": null, "Доп. информация": null }, "geometry": { "type": "Point", "coordinates": [ 356855.944372116122395, 6648917.240030584856868 ] } },
{ "type": "Feature", "properties": { "Field1": null, "ОМЯ": null, "Дата": null, "Происшествие": "Затопление улицы", "Адрес": "Санкт-Петербург Пулковское шоссе", "Широта": 59.819608, "Долгота": 30.32309, "Ссылка-Заголовок": "https://mr-7.ru/articles/2013/07/01/peterburg-plyvet-i-stoit-v-probkakh-iz-za-silneishego-livnia", "Доп. ссылка": null, "Доп. информация": null }, "geometry": { "type": "Point", "coordinates": [ 349903.054139387910254, 6634353.49035506695509 ] } },
{ "type": "Feature", "properties": { "Field1": null, "ОМЯ": null, "Дата": null, "Происшествие": "Затопление улицы", "Адрес": "Санкт-Петерург Выборгское шоссе", "Широта": 60.050538, "Долгота": 30.311107, "Ссылка-Заголовок": "https://mr-7.ru/articles/2013/07/01/peterburg-plyvet-i-stoit-v-probkakh-iz-za-silneishego-livnia", "Доп. ссылка": null, "Доп. информация": null }, "geometry": { "type": "Point", "coordinates": [ 350276.151257569203153, 6660084.484822815284133 ] } },
{ "type": "Feature", "properties": { "Field1": null, "ОМЯ": null, "Дата": null, "Происшествие": "ДТП", "Адрес": "Санкт-Петербург на въезд на мост Александра Невского", "Широта": 59.924728, "Долгота": 30.391052, "Ссылка-Заголовок": "https://mr-7.ru/articles/2013/07/01/peterburg-plyvet-i-stoit-v-probkakh-iz-za-silneishego-livnia", "Доп. ссылка": null, "Доп. информация": null }, "geometry": { "type": "Point", "coordinates": [ 354173.562319671153091, 6645902.208382491022348 ] } },
{ "type": "Feature", "properties": { "Field1": null, "ОМЯ": null, "Дата": null, "Происшествие": "ДТП", "Адрес": "Санкт-Петербург р-н Технологического института на Московском проспекте", "Широта": 59.917931, "Долгота": 30.318091, "Ссылка-Заголовок": "https://www.fontanka.ru/2013/07/01/165/?ysclid=m88qea5k3s794010750", "Доп. ссылка": null, "Доп. информация": null }, "geometry": { "type": "Point", "coordinates": [ 350066.223772371653467, 6645308.664311265572906 ] } },
{ "type": "Feature", "properties": { "Field1": null, "ОМЯ": null, "Дата": null, "Происшествие": "ДТП", "Адрес": "Санкт-Петербург Лиговский пр.", "Широта": 59.911565, "Долгота": 30.348046, "Ссылка-Заголовок": "https://www.fontanka.ru/2013/07/01/165/?ysclid=m88qea5k3s794010750", "Доп. ссылка": null, "Доп. информация": null }, "geometry": { "type": "Point", "coordinates": [ 351711.879139608470723, 6644532.609238444827497 ] } },
{ "type": "Feature", "properties": { "Field1": null, "ОМЯ": null, "Дата": null, "Происшествие": "ДТП", "Адрес": "Санкт-Петербург пр. Славы", "Широта": 59.9310584, "Долгота": 30.3609097, "Ссылка-Заголовок": "https://www.fontanka.ru/2013/07/01/165/?ysclid=m88qea5k3s794010750", "Доп. ссылка": null, "Доп. информация": null }, "geometry": { "type": "Point", "coordinates": [ 352517.463264633202925, 6646673.62561112921685 ] } },
{ "type": "Feature", "properties": { "Field1": 10, "ОМЯ": "Сильный дождь", "Дата": "2013/07/22", "Происшествие": "ДТП", "Адрес": "Санкт-Петербург Таллинское шоссе", "Широта": 59.8110362, "Долгота": 30.1699166, "Ссылка-Заголовок": "https://www.metronews.ru/novosti/peterbourg/reviews/dozhd-v-peterburge-budet-idti-dva-dnya-1125802/?ua=dt&ysclid=m88qrx1uw0910421303", "Доп. ссылка": null, "Доп. информация": null }, "geometry": { "type": "Point", "coordinates": [ 341277.068301982712001, 6633756.404298805631697 ] } },
{ "type": "Feature", "properties": { "Field1": 11, "ОМЯ": "Сильный дождь", "Дата": "2014/08/08", "Происшествие": "Затопление подземного перехода, закрытие входа в метро", "Адрес": "Санкт-Петербург вход на станцию м. «Невский проспект», Невский проспект, 33", "Широта": 59.9344504, "Долгота": 30.3308051, "Ссылка-Заголовок": "https://www.ntv.ru/novosti/1194016/?ysclid=m88qshpty4926156270", "Доп. ссылка": null, "Доп. информация": null }, "geometry": { "type": "Point", "coordinates": [ 350850.937981139635667, 6647118.646007326431572 ] } },
{ "type": "Feature", "properties": { "Field1": null, "ОМЯ": null, "Дата": null, "Происшествие": "Затопление здания", "Адрес": "Санкт-Петербург Невский просп., 28 (Дом Зингер)", "Широта": 59.9356768, "Долгота": 30.3257242, "Ссылка-Заголовок": "https://sanktpeterburg.bezformata.com/listnews/ofis-vkontakte-v-dome-zingera/22853363/", "Доп. ссылка": null, "Доп. информация": null }, "geometry": { "type": "Point", "coordinates": [ 350572.648670304624829, 6647266.613744636066258 ] } },
{ "type": "Feature", "properties": { "Field1": null, "ОМЯ": null, "Дата": null, "Происшествие": "Молния ударила в троллейбус, остановка движения троллейбусов", "Адрес": "Санкт-Петербург Московский пр.", "Широта": 59.8855197, "Долгота": 30.3207475, "Ссылка-Заголовок": "https://sanktpeterburg.bezformata.com/listnews/prospekte-v-trollejbus-udarila-molniya/22852519/", "Доп. ссылка": null, "Доп. информация": null }, "geometry": { "type": "Point", "coordinates": [ 350068.626592252636328, 6641695.092875516042113 ] } },
{ "type": "Feature", "properties": { "Field1": 12, "ОМЯ": "Сильный дождь", "Дата": "2014/08/07", "Происшествие": "Гроза вывела из строя линию электропередач, отключение электичества", "Адрес": "Санкт-Петербург дома Богатырского пр. и Камышовой ул.", "Широта": 60.0028409, "Долгота": 30.253222, "Ссылка-Заголовок": "https://gazeta.spb.ru/1697216-0/", "Доп. ссылка": null, "Доп. информация": null }, "geometry": { "type": "Point", "coordinates": [ 346833.564856249082368, 6654908.12784503493458 ] } },
{ "type": "Feature", "properties": { "Field1": 13, "ОМЯ": "Сильный ливень", "Дата": "2014/08/03", "Происшествие": "Поддтопило вестибюль метро", "Адрес": "Санкт-Петербург м. Комендантский проспект, Комендантский проспект, 12соор1", "Широта": 60.007556299999898, "Долгота": 30.2577772, "Ссылка-Заголовок": "https://gazeta.spb.ru/2404194-v-peterburge-posle-livnya-protekla-stantsiya-komendantskij-prospekt/", "Доп. ссылка": null, "Доп. информация": null }, "geometry": { "type": "Point", "coordinates": [ 347109.247628355980851, 6655422.429368647746742 ] } },
{ "type": "Feature", "properties": { "Field1": 14, "ОМЯ": "Сильный дождь", "Дата": "2014/05/28", "Происшествие": "Поломка светофоров, пробки на дорогах (10 баллов)", "Адрес": "Санкт-Петербург Невский пр.", "Широта": 59.932464, "Долгота": 30.349258, "Ссылка-Заголовок": "https://neva.today/news/2014/5/28/304415?ysclid=m88qsk3v3r49469625", "Доп. ссылка": null, "Доп. информация": null }, "geometry": { "type": "Point", "coordinates": [ 351872.820880429178942, 6646856.101496114395559 ] } },
{ "type": "Feature", "properties": { "Field1": null, "ОМЯ": null, "Дата": null, "Происшествие": "Поломка светофоров, пробки на дорогах (10 баллов)", "Адрес": "Санкт-Петербург Петергофское шоссе", "Широта": 59.846726, "Долгота": 30.157208, "Ссылка-Заголовок": "https://neva.today/news/2014/5/28/304415?ysclid=m88qsk3v3r49469625", "Доп. ссылка": null, "Доп. информация": null }, "geometry": { "type": "Point", "coordinates": [ 340735.129636425233912, 6637759.082777818664908 ] } },
{ "type": "Feature", "properties": { "Field1": null, "ОМЯ": null, "Дата": null, "Происшествие": "Поломка светофоров, пробки на дорогах (10 баллов)", "Адрес": "Санкт-Петербург пр. Стачек", "Широта": 59.875894, "Долгота": 30.257567, "Ссылка-Заголовок": "https://neva.today/news/2014/5/28/304415?ysclid=m88qsk3v3r49469625", "Доп. ссылка": null, "Доп. информация": null }, "geometry": { "type": "Point", "coordinates": [ 346489.971659436705522, 6640768.484833908267319 ] } },
{ "type": "Feature", "properties": { "Field1": null, "ОМЯ": null, "Дата": null, "Происшествие": "Поломка светофоров, пробки на дорогах (10 баллов)", "Адрес": "Санкт-Петербург пр. Маршала Жукова", "Широта": 59.849614, "Долгота": 30.218284, "Ссылка-Заголовок": "https://neva.today/news/2014/5/28/304415?ysclid=m88qsk3v3r49469625", "Доп. ссылка": null, "Доп. информация": null }, "geometry": { "type": "Point", "coordinates": [ 344169.015399482974317, 6637935.234889513812959 ] } },
{ "type": "Feature", "properties": { "Field1": null, "ОМЯ": null, "Дата": null, "Происшествие": "Поломка светофоров, пробки на дорогах (10 баллов)", "Адрес": "Санкт-Петербург Литейный пр.", "Широта": 59.941398, "Долгота": 30.348576, "Ссылка-Заголовок": "https://neva.today/news/2014/5/28/304415?ysclid=m88qsk3v3r49469625", "Доп. ссылка": null, "Доп. информация": null }, "geometry": { "type": "Point", "coordinates": [ 351874.579047591309063, 6647852.047153223305941 ] } },
{ "type": "Feature", "properties": { "Field1": null, "ОМЯ": null, "Дата": null, "Происшествие": "Затопление улицы", "Адрес": "Санкт-Петербург Дунайский пр., Московское шоссе", "Широта": 59.8307452, "Долгота": 30.3444117, "Ссылка-Заголовок": "https://spb.aif.ru/city/event/1179246?ysclid=m88rilooon803381050", "Доп. ссылка": null, "Доп. информация": null }, "geometry": { "type": "Point", "coordinates": [ 351147.862955386925023, 6635545.012681762687862 ] } },
{ "type": "Feature", "properties": { "Field1": 15, "ОМЯ": "Мокрый снег и дождь, сильный ветер (до 15 м/с)", "Дата": "2025/03/04", "Происшествие": "Пробка", "Адрес": "Санкт-Петербург КАД (1 км от Колтушского шоссе до Октябрьской набережной), Софиская ул. (7,5 км от р. Славянка до Автозаводской ул.), пр. Косыгина и Заневский пр. (6,4 км от ул. Коммуны до моста Александра Невского)", "Широта": 59.9281339, "Долгота": 30.4065418, "Ссылка-Заголовок": "https://www.fontanka.ru/2025/03/04/75177860/", "Доп. ссылка": null, "Доп. информация": null }, "geometry": { "type": "Point", "coordinates": [ 355053.925452841329388, 6646247.291331296786666 ] } },
{ "type": "Feature", "properties": { "Field1": null, "ОМЯ": null, "Дата": null, "Происшествие": "Пробка", "Адрес": "Санкт-Петербург пр. Культуры, Тихорецкий пр., Политехническая ул. (6,2 км от Суздальского пр. до пл. Мужества), Московское шоссе (5,1 км от Колпинского шоссе до поворота к заводу Foxconn)", "Широта": 60.008829, "Долгота": 30.369255, "Ссылка-Заголовок": "https://www.fontanka.ru/2025/03/04/75179063/", "Доп. ссылка": null, "Доп. информация": null }, "geometry": { "type": "Point", "coordinates": [ 353328.021247347583994, 6655311.596172192133963 ] } },
{ "type": "Feature", "properties": { "Field1": null, "ОМЯ": null, "Дата": null, "Происшествие": "ДТП", "Адрес": "Санкт-Петербург Челябинская ул., КАД у съезда на Выборгское шоссе, на съезде на Новоприозерское шоссе. На мосту Александра Невского. Светлановский пр. Пр. Непокоренных, пересечение с Амурской ул.", "Широта": 60.0808432, "Долгота": 30.2556906, "Ссылка-Заголовок": "https://www.fontanka.ru/2025/03/04/75179063/", "Доп. ссылка": null, "Доп. информация": null }, "geometry": { "type": "Point", "coordinates": [ 347331.72582981956657, 6663584.411385079845786 ] } },
{ "type": "Feature", "properties": { "Field1": null, "ОМЯ": null, "Дата": null, "Происшествие": "Массовое ДТП, пробка", "Адрес": "Санкт-Петербург КАД у съезда к Комендантскому пр., КАД на 13-м километре", "Широта": 60.0467611, "Долгота": 30.05442, "Ссылка-Заголовок": "https://www.fontanka.ru/2025/03/04/75178094/", "Доп. ссылка": null, "Доп. информация": null }, "geometry": { "type": "Point", "coordinates": [ 335970.521797029417939, 6660273.309142023324966 ] } },
{ "type": "Feature", "properties": { "Field1": null, "ОМЯ": null, "Дата": null, "Происшествие": "ДТП", "Адрес": "Санкт-Петербург КАД на внутреннем кольце перед вантовым мостом", "Широта": 60.0466155, "Долгота": 30.0533366, "Ссылка-Заголовок": "https://www.fontanka.ru/2025/03/04/75178094/", "Доп. ссылка": null, "Доп. информация": null }, "geometry": { "type": "Point", "coordinates": [ 335909.494860019476619, 6660259.79366356972605 ] } },
{ "type": "Feature", "properties": { "Field1": 16, "ОМЯ": "Сильный снег, ветер умеренный (порывы до 15 м/с)", "Дата": "2025/03/14", "Происшествие": "Задержка самолёта", "Адрес": "Санкт-Петербург аэропорт Пулково", "Широта": 59.8029127, "Долгота": 30.2678391, "Ссылка-Заголовок": "https://moika78.ru/news/2025-03-14/1098430-aeroport-vnukovo-zakryli/", "Доп. ссылка": null, "Доп. информация": null }, "geometry": { "type": "Point", "coordinates": [ 346729.582548779551871, 6632621.72981658577919 ] } },
{ "type": "Feature", "properties": { "Field1": 17, "ОМЯ": "Сильный дождь", "Дата": "2015/08/03", "Происшествие": "Пробка", "Адрес": "Санкт-Петербург трасса \"Скандинавия\"", "Широта": 59.9310584, "Долгота": 30.3609097, "Ссылка-Заголовок": "https://www.dp.ru/a/2015/08/03/Smerch_pronessja_segodnja_ut", "Доп. ссылка": null, "Доп. информация": null }, "geometry": { "type": "Point", "coordinates": [ 352517.463264633202925, 6646673.62561112921685 ] } },
{ "type": "Feature", "properties": { "Field1": null, "ОМЯ": null, "Дата": null, "Происшествие": "Затопление улицы", "Адрес": "Санкт-Петербург пр. Энгельса", "Широта": 60.0445, "Долгота": 30.3322255, "Ссылка-Заголовок": "https://www.dp.ru/a/2015/08/03/Smerch_pronessja_segodnja_ut", "Доп. ссылка": null, "Доп. информация": null }, "geometry": { "type": "Point", "coordinates": [ 351424.517585056135431, 6659364.760460876859725 ] } },
{ "type": "Feature", "properties": { "Field1": 18, "ОМЯ": "Сильный дождь", "Дата": "2015/07/10", "Происшествие": "Затопление улицы", "Адрес": "Санкт-Петербург ул. Земледельческая", "Широта": 59.9899612, "Долгота": 30.3285725, "Ссылка-Заголовок": "https://runews24.ru/saint-petersburg/10072015-v-peterburge-liven-zatopil-ulici", "Доп. ссылка": null, "Доп. информация": null }, "geometry": { "type": "Point", "coordinates": [ 350975.80425964074675, 6653302.403113272972405 ] } },
{ "type": "Feature", "properties": { "Field1": null, "ОМЯ": null, "Дата": null, "Происшествие": "Затопление улицы, сломался светофор", "Адрес": "Санкт-Петербург пересечение ул. Есенина и Сикейроса", "Широта": 60.034928, "Долгота": 30.328767, "Ссылка-Заголовок": "https://sanktpeterburg.bezformata.com/listnews/peterburg-zhdut-livni-s-grozami/35246173/", "Доп. ссылка": null, "Доп. информация": null }, "geometry": { "type": "Point", "coordinates": [ 351188.908228092361242, 6658307.101013435982168 ] } },
{ "type": "Feature", "properties": { "Field1": 19, "ОМЯ": "Сильный дождь", "Дата": "2024/08/23", "Происшествие": "Затопление улицы", "Адрес": "Санкт-Петербург пр. Энгельса", "Широта": 60.051216, "Долгота": 30.333906, "Ссылка-Заголовок": "https://sanktpeterburg.bezformata.com/listnews/dozhdya-okazalis-zatopleni-neskolko/35245939/", "Доп. ссылка": null, "Доп. информация": null }, "geometry": { "type": "Point", "coordinates": [ 351548.236107066448312, 6660108.529677150771022 ] } },
{ "type": "Feature", "properties": { "Field1": null, "ОМЯ": null, "Дата": null, "Происшествие": "Затопление улицы", "Адрес": "Санкт-Петербург пр. Испытателей", "Широта": 60.003709, "Долгота": 30.293231, "Ссылка-Заголовок": "https://sanktpeterburg.bezformata.com/listnews/dozhdya-okazalis-zatopleni-neskolko/35245939/", "Доп. ссылка": null, "Доп. информация": null }, "geometry": { "type": "Point", "coordinates": [ 349067.67516764550237, 6654912.7639036225155 ] } },
{ "type": "Feature", "properties": { "Field1": null, "ОМЯ": null, "Дата": null, "Происшествие": "Затопление улицы", "Адрес": "Санкт-Петербург ул. Маршала Казакова", "Широта": 59.8610829, "Долгота": 30.2024976, "Ссылка-Заголовок": "https://sanktpeterburg.bezformata.com/listnews/dozhdya-okazalis-zatopleni-neskolko/35245939/", "Доп. ссылка": null, "Доп. информация": null }, "geometry": { "type": "Point", "coordinates": [ 343338.952040805888828, 6639248.964040450751781 ] } },
{ "type": "Feature", "properties": { "Field1": null, "ОМЯ": null, "Дата": null, "Происшествие": "Произошел выход водовоздушной смеси", "Адрес": "Санкт-Петербург ул. Планерная, 1", "Широта": 59.9856245, "Долгота": 30.2323383, "Ссылка-Заголовок": "https://www.fontanka.ru/2024/08/23/73994855/", "Доп. ссылка": null, "Доп. информация": null }, "geometry": { "type": "Point", "coordinates": [ 345589.274990740465, 6653040.448459451086819 ] } },
{ "type": "Feature", "properties": { "Field1": null, "ОМЯ": null, "Дата": null, "Происшествие": null, "Адрес": null, "Широта": null, "Долгота": null, "Ссылка-Заголовок": null, "Доп. ссылка": null, "Доп. информация": null }, "geometry": { "type": "Point", "coordinates": [ -3395506.464874160476029, 0.0 ] } },
{ "type": "Feature", "properties": { "Field1": null, "ОМЯ": null, "Дата": null, "Происшествие": null, "Адрес": null, "Широта": null, "Долгота": null, "Ссылка-Заголовок": null, "Доп. ссылка": null, "Доп. информация": null }, "geometry": { "type": "Point", "coordinates": [ -3395506.464874160476029, 0.0 ] } },
{ "type": "Feature", "properties": { "Field1": null, "ОМЯ": null, "Дата": null, "Происшествие": null, "Адрес": null, "Широта": null, "Долгота": null, "Ссылка-Заголовок": null, "Доп. ссылка": null, "Доп. информация": null }, "geometry": { "type": "Point", "coordinates": [ -3395506.464874160476029, 0.0 ] } },
{ "type": "Feature", "properties": { "Field1": null, "ОМЯ": null, "Дата": null, "Происшествие": null, "Адрес": null, "Широта": null, "Долгота": null, "Ссылка-Заголовок": null, "Доп. ссылка": null, "Доп. информация": null }, "geometry": { "type": "Point", "coordinates": [ -3395506.464874160476029, 0.0 ] } },
{ "type": "Feature", "properties": { "Field1": null, "ОМЯ": null, "Дата": null, "Происшествие": null, "Адрес": null, "Широта": null, "Долгота": null, "Ссылка-Заголовок": null, "Доп. ссылка": null, "Доп. информация": null }, "geometry": { "type": "Point", "coordinates": [ -3395506.464874160476029, 0.0 ] } },
{ "type": "Feature", "properties": { "Field1": null, "ОМЯ": null, "Дата": null, "Происшествие": null, "Адрес": null, "Широта": null, "Долгота": null, "Ссылка-Заголовок": null, "Доп. ссылка": null, "Доп. информация": null }, "geometry": { "type": "Point", "coordinates": [ -3395506.464874160476029, 0.0 ] } },
{ "type": "Feature", "properties": { "Field1": null, "ОМЯ": null, "Дата": null, "Происшествие": null, "Адрес": null, "Широта": null, "Долгота": null, "Ссылка-Заголовок": null, "Доп. ссылка": null, "Доп. информация": null }, "geometry": { "type": "Point", "coordinates": [ -3395506.464874160476029, 0.0 ] } },
{ "type": "Feature", "properties": { "Field1": null, "ОМЯ": null, "Дата": null, "Происшествие": null, "Адрес": null, "Широта": null, "Долгота": null, "Ссылка-Заголовок": null, "Доп. ссылка": null, "Доп. информация": null }, "geometry": { "type": "Point", "coordinates": [ -3395506.464874160476029, 0.0 ] } },
{ "type": "Feature", "properties": { "Field1": null, "ОМЯ": null, "Дата": null, "Происшествие": null, "Адрес": null, "Широта": null, "Долгота": null, "Ссылка-Заголовок": null, "Доп. ссылка": null, "Доп. информация": null }, "geometry": { "type": "Point", "coordinates": [ -3395506.464874160476029, 0.0 ] } },
{ "type": "Feature", "properties": { "Field1": null, "ОМЯ": null, "Дата": null, "Происшествие": null, "Адрес": null, "Широта": null, "Долгота": null, "Ссылка-Заголовок": null, "Доп. ссылка": null, "Доп. информация": null }, "geometry": { "type": "Point", "coordinates": [ -3395506.464874160476029, 0.0 ] } },
{ "type": "Feature", "properties": { "Field1": 20, "ОМЯ": "Ливень, сильный ветер (порывы до 27 м/с)", "Дата": "2022/08/06", "Происшествие": "Упало дерево, повреждена машина", "Адрес": "Санкт-Петербург пр. Королева, 15", "Широта": 60.0111744, "Долгота": 30.2838371, "Ссылка-Заголовок": "https://megapolisonline.ru/v-peterburge-i-okrestnostyah-nachalsya-bolshoj-drevopad-povalennye-vetrom-derevya-prevrashhayutsya-v-shlagbaumy-i-lomayut-mashiny/", "Доп. ссылка": null, "Доп. информация": null }, "geometry": { "type": "Point", "coordinates": [ 348578.199444140715059, 6655765.178780634887516 ] } },
{ "type": "Feature", "properties": { "Field1": null, "ОМЯ": null, "Дата": null, "Происшествие": "Затопило здание", "Адрес": "Санкт-Петербург Выборгское ш., 214к2", "Широта": 60.0747147, "Долгота": 30.2750209, "Ссылка-Заголовок": "https://megapolisonline.ru/mashiny-plavayut-peshehody-mochat-nogi-peterburzhtsy-snimayut-zatoplennye-livnem-ulitsy-i-pomeshheniya/", "Доп. ссылка": null, "Доп. информация": null }, "geometry": { "type": "Point", "coordinates": [ 348378.538743392564356, 6662857.77181672398001 ] } },
{ "type": "Feature", "properties": { "Field1": null, "ОМЯ": null, "Дата": null, "Происшествие": "Затопило выход из метро", "Адрес": "Санкт-Петербург м. \"Площадь восстания\"", "Широта": 59.93146, "Долгота": 30.356514, "Ссылка-Заголовок": "https://megapolisonline.ru/mashiny-plavayut-peshehody-mochat-nogi-peterburzhtsy-snimayut-zatoplennye-livnem-ulitsy-i-pomeshheniya/", "Доп. ссылка": null, "Доп. информация": null }, "geometry": { "type": "Point", "coordinates": [ 352273.687478457577527, 6646728.130434717051685 ] } },
{ "type": "Feature", "properties": { "Field1": null, "ОМЯ": null, "Дата": null, "Происшествие": "Снесло остановку, пострадал человек", "Адрес": "Санкт-Петербург пр. Большевиков, 10/1", "Широта": 59.912094, "Долгота": 30.4801041, "Ссылка-Заголовок": "https://megapolisonline.ru/zhenshhinu-udarilo-padayushhej-ostanovkoj-na-prospekte-bolshevikov/", "Доп. ссылка": null, "Доп. информация": null }, "geometry": { "type": "Point", "coordinates": [ 359095.924160799302626, 6644303.027957490645349 ] } },
{ "type": "Feature", "properties": { "Field1": null, "ОМЯ": null, "Дата": null, "Происшествие": "Упало дерево, разбит фонарь, оборваны провода, не работает светофор", "Адрес": "Санкт-Петербург перекресток ул. Зенитчиков и Краснопутиловской", "Широта": 59.874015, "Долгота": 30.262132, "Ссылка-Заголовок": "https://vk.com/wall-68471405_17002710", "Доп. ссылка": null, "Доп. информация": null }, "geometry": { "type": "Point", "coordinates": [ 346736.754417111049406, 6640548.773257521912456 ] } },
{ "type": "Feature", "properties": { "Field1": null, "ОМЯ": null, "Дата": null, "Происшествие": "Сорвало крышу у здания", "Адрес": "Санкт-Петербург Дальневосточный пр., 13к3", "Широта": 59.90457, "Долгота": 30.4501905, "Ссылка-Заголовок": "https://vk.com/wall-68471405_17002656", "Доп. ссылка": null, "Доп. информация": null }, "geometry": { "type": "Point", "coordinates": [ 357391.533430825569667, 6643529.572664524428546 ] } },
{ "type": "Feature", "properties": { "Field1": null, "ОМЯ": null, "Дата": null, "Происшествие": "Упало дерево, повреждена машина", "Адрес": "Санкт-Петербург просп. Солидарности, 11, корп. 1", "Широта": 59.9204824, "Долгота": 30.4920142, "Ссылка-Заголовок": "https://vk.com/wall-68471405_17002461", "Доп. ссылка": null, "Доп. информация": null }, "geometry": { "type": "Point", "coordinates": [ 359797.07379015465267, 6645211.476307179778814 ] } },
{ "type": "Feature", "properties": { "Field1": null, "ОМЯ": null, "Дата": null, "Происшествие": "Упало дерево", "Адрес": "Санкт-Петербург ул. Салова 70 корп 2", "Широта": 59.8858711, "Долгота": 30.3756346, "Ссылка-Заголовок": "https://vk.com/wall-68471405_17001601", "Доп. ссылка": null, "Доп. информация": null }, "geometry": { "type": "Point", "coordinates": [ 353140.589649899338838, 6641611.192171272821724 ] } },
{ "type": "Feature", "properties": { "Field1": null, "ОМЯ": null, "Дата": null, "Происшествие": "Произошел выход водовоздушной смеси", "Адрес": "Санкт-Петербург ул. Планерная, 1", "Широта": 59.9856245, "Долгота": 30.2323383, "Ссылка-Заголовок": "https://vk.com/wall-68471405_17001428", "Доп. ссылка": null, "Доп. информация": null }, "geometry": { "type": "Point", "coordinates": [ 345589.274990740465, 6653040.448459451086819 ] } },
{ "type": "Feature", "properties": { "Field1": null, "ОМЯ": null, "Дата": null, "Происшествие": "Упало дерево, оборваны провода, повреждена машина", "Адрес": "Санкт-Петербург ул. Орджоникидзе, 8", "Широта": 59.8456, "Долгота": 30.3252766, "Ссылка-Заголовок": "https://vk.com/wall-68471405_17001388", "Доп. ссылка": null, "Доп. информация": null }, "geometry": { "type": "Point", "coordinates": [ 350142.462908991263248, 6637241.573486380279064 ] } },
{ "type": "Feature", "properties": { "Field1": null, "ОМЯ": null, "Дата": null, "Происшествие": "Упало дерево, повреждены машины", "Адрес": "Санкт-Петербург пр. Солидарности, 7к1", "Широта": 59.9229024, "Долгота": 30.4907557, "Ссылка-Заголовок": "https://vk.com/wall-68471405_17001378", "Доп. ссылка": null, "Доп. информация": null }, "geometry": { "type": "Point", "coordinates": [ 359736.957978024496697, 6645483.520723913796246 ] } },
{ "type": "Feature", "properties": { "Field1": null, "ОМЯ": null, "Дата": null, "Происшествие": "Упало дерево на проезжую часть", "Адрес": "Санкт-Петербург ул. Шаврова, 15", "Широта": 60.024423, "Долгота": 30.237234, "Ссылка-Заголовок": "https://vk.com/wall-68471405_17001075", "Доп. ссылка": null, "Доп. информация": null }, "geometry": { "type": "Point", "coordinates": [ 346042.787018296599854, 6657347.42076338082552 ] } },
{ "type": "Feature", "properties": { "Field1": 21, "ОМЯ": "Сильный дождь", "Дата": "2022/08/02", "Происшествие": "Затопление улицы", "Адрес": "Санкт-Петербург перекресток ул. Крыленко и Октябрьской", "Широта": 59.89292, "Долгота": 30.447121, "Ссылка-Заголовок": "https://vk.com/wall-68471405_16975487", "Доп. ссылка": null, "Доп. информация": null }, "geometry": { "type": "Point", "coordinates": [ 357169.89530797424959, 6642239.414922218769789 ] } },
{ "type": "Feature", "properties": { "Field1": null, "ОМЯ": null, "Дата": null, "Происшествие": "Затопление улицы", "Адрес": "Санкт-Петербург ул. Парашютная", "Широта": 60.0384888, "Долгота": 30.2438851, "Ссылка-Заголовок": "https://vk.com/wall-68471405_16975487?z=photo-68471405_458377630%2Fwall-68471405_16975579", "Доп. ссылка": null, "Доп. информация": null }, "geometry": { "type": "Point", "coordinates": [ 346478.572049759794027, 6658897.527674910612404 ] } },
{ "type": "Feature", "properties": { "Field1": null, "ОМЯ": null, "Дата": null, "Происшествие": "Затопление улицы", "Адрес": "Санкт-Петербург ул. Полевая Сабировская", "Широта": 59.9934383, "Долгота": 30.2756513, "Ссылка-Заголовок": "https://vk.com/wall-68471405_16975914", "Доп. ссылка": null, "Доп. информация": null }, "geometry": { "type": "Point", "coordinates": [ 348040.671562099130824, 6653809.838307862170041 ] } },
{ "type": "Feature", "properties": { "Field1": 22, "ОМЯ": "Сильный дождь, ветер", "Дата": "2022/08/30", "Происшествие": "Упало дерево, повреждена машина, перекрыт проезд, оборваны провода", "Адрес": "Санкт-Петербург ул. Хрустальная, 14", "Широта": 59.9107811, "Долгота": 30.402048699999899, "Ссылка-Заголовок": "https://vk.com/wall-68471405_17092361", "Доп. ссылка": null, "Доп. информация": null }, "geometry": { "type": "Point", "coordinates": [ 354727.057959514902905, 6644325.61027604341507 ] } },
{ "type": "Feature", "properties": { "Field1": null, "ОМЯ": null, "Дата": null, "Происшествие": "Упало дерево, повреждена машина", "Адрес": "Санкт-Петербург ул. Гданьская", "Широта": 60.015913, "Долгота": 30.327967, "Ссылка-Заголовок": "https://www.spb.kp.ru/daily/27438/4640259/", "Доп. ссылка": null, "Доп. информация": null }, "geometry": { "type": "Point", "coordinates": [ 351058.792207329184748, 6656192.389814701862633 ] } },
{ "type": "Feature", "properties": { "Field1": null, "ОМЯ": null, "Дата": null, "Происшествие": "Упало дерево, повреждёно здание, повреждена машина", "Адрес": "Санкт-Петербург ул. Бассейная, 3", "Широта": 59.864093599999897, "Долгота": 30.2982793, "Ссылка-Заголовок": "https://www.spb.kp.ru/daily/27438/4640259/", "Доп. ссылка": null, "Доп. информация": null }, "geometry": { "type": "Point", "coordinates": [ 348714.427136595011689, 6639361.369981277734041 ] } },
{ "type": "Feature", "properties": { "Field1": null, "ОМЯ": null, "Дата": null, "Происшествие": "Пробка", "Адрес": "Санкт-Петербург центр города", "Широта": 59.9310584, "Долгота": 30.3609097, "Ссылка-Заголовок": "https://www.spb.kp.ru/daily/27438/4640259/", "Доп. ссылка": null, "Доп. информация": null }, "geometry": { "type": "Point", "coordinates": [ 352517.463264633202925, 6646673.62561112921685 ] } },
{ "type": "Feature", "properties": { "Field1": null, "ОМЯ": null, "Дата": null, "Происшествие": "Упало дерево, повреждена машина, перекрыт проезд", "Адрес": "Санкт-Петербург Ярославский пр., 1", "Широта": 60.0086354, "Долгота": 30.3233556, "Ссылка-Заголовок": "https://vk.com/wall-68471405_17094593", "Доп. ссылка": null, "Доп. информация": null }, "geometry": { "type": "Point", "coordinates": [ 350769.042248040612321, 6655392.736922148615122 ] } },
{ "type": "Feature", "properties": { "Field1": 23, "ОМЯ": "Сильный дождь, ветер", "Дата": "2022/08/31", "Происшествие": "Упало дерево, повреждена машина", "Адрес": "Санкт-Петербург ул. Есенина, 12-14", "Широта": 60.0280373, "Долгота": 30.3320795, "Ссылка-Заголовок": "https://vk.com/wall-68471405_17095208", "Доп. ссылка": null, "Доп. информация": null }, "geometry": { "type": "Point", "coordinates": [ 351342.415127623185981, 6657532.661121415905654 ] } },
{ "type": "Feature", "properties": { "Field1": null, "ОМЯ": null, "Дата": null, "Происшествие": "Упало дерево, повреждена машина", "Адрес": "Санкт-Петербург ул. Орбели, 23к5", "Широта": 60.0041954, "Долгота": 30.3420358, "Ссылка-Заголовок": "https://vk.com/wall-68471405_17093622", "Доп. ссылка": null, "Доп. информация": null }, "geometry": { "type": "Point", "coordinates": [ 351790.273852717829868, 6654856.522491674870253 ] } },
{ "type": "Feature", "properties": { "Field1": 24, "ОМЯ": "Сильный ливень", "Дата": "2020/07/28", "Происшествие": "Затопление улицы", "Адрес": "Санкт-Петербург пр. Маршала Казакова", "Широта": 59.8610829, "Долгота": 30.2024976, "Ссылка-Заголовок": "https://www.spb.kp.ru/daily/27162.3/4260769/", "Доп. ссылка": null, "Доп. информация": null }, "geometry": { "type": "Point", "coordinates": [ 343338.952040805888828, 6639248.964040450751781 ] } },
{ "type": "Feature", "properties": { "Field1": null, "ОМЯ": null, "Дата": null, "Происшествие": "Затопление улицы", "Адрес": "Санкт-Петербург пр. Народного Ополчения (под мостом)", "Широта": 59.835321, "Долгота": 30.267015, "Ссылка-Заголовок": "https://www.spb.kp.ru/daily/27162.3/4260769/", "Доп. ссылка": null, "Доп. информация": null }, "geometry": { "type": "Point", "coordinates": [ 346832.215953562641516, 6636230.744366019964218 ] } },
{ "type": "Feature", "properties": { "Field1": null, "ОМЯ": null, "Дата": null, "Происшествие": "Затопление улицы", "Адрес": "Санкт-Петербург ул. Парашютная", "Широта": 60.0384888, "Долгота": 30.2438851, "Ссылка-Заголовок": "https://vk.com/wall-68471405_13582525", "Доп. ссылка": null, "Доп. информация": null }, "geometry": { "type": "Point", "coordinates": [ 346478.572049759794027, 6658897.527674910612404 ] } },
{ "type": "Feature", "properties": { "Field1": null, "ОМЯ": null, "Дата": null, "Происшествие": "Подтопление подземной парковки", "Адрес": "Санкт-Петербург пр. Энгельса, 97-93", "Широта": 60.0261108, "Долгота": 30.3201399, "Ссылка-Заголовок": "https://vk.com/wall-68471405_13580609", "Доп. ссылка": null, "Доп. информация": null }, "geometry": { "type": "Point", "coordinates": [ 350668.68387160776183, 6657345.133025186136365 ] } },
{ "type": "Feature", "properties": { "Field1": null, "ОМЯ": null, "Дата": null, "Происшествие": "Затопление улицы", "Адрес": "Санкт-Петербург пр. Стачек", "Широта": 59.8737787, "Долгота": 30.2586007, "Ссылка-Заголовок": "https://www.spb.kp.ru/daily/27162.3/4260769/", "Доп. ссылка": null, "Доп. информация": null }, "geometry": { "type": "Point", "coordinates": [ 346538.06119182263501, 6640530.65104475710541 ] } },
{ "type": "Feature", "properties": { "Field1": null, "ОМЯ": null, "Дата": null, "Происшествие": "Затопление улицы", "Адрес": "Санкт-Петербург Ленинский пр.", "Широта": 59.852039, "Долгота": 30.2384239, "Ссылка-Заголовок": "https://www.spb.kp.ru/daily/27162.3/4260769/", "Доп. ссылка": null, "Доп. информация": null }, "geometry": { "type": "Point", "coordinates": [ 345308.070459012407809, 6638157.927621146664023 ] } },
{ "type": "Feature", "properties": { "Field1": null, "ОМЯ": null, "Дата": null, "Происшествие": "Затопление метро", "Адрес": "Санкт-Петербург м. \"Автово\"", "Широта": 59.8680681, "Долгота": 30.2603346, "Ссылка-Заголовок": "https://www.spb.kp.ru/daily/27162.3/4260969/", "Доп. ссылка": null, "Доп. информация": null }, "geometry": { "type": "Point", "coordinates": [ 346608.781045532203279, 6639891.030714752152562 ] } },
{ "type": "Feature", "properties": { "Field1": null, "ОМЯ": null, "Дата": null, "Происшествие": "Затопление улицы", "Адрес": "Санкт-Петербург Пулковское шоссе, около КАД", "Широта": 59.7929915, "Долгота": 30.3244092, "Ссылка-Заголовок": "https://www.spb.kp.ru/daily/27162.3/4260969/", "Доп. ссылка": null, "Доп. информация": null }, "geometry": { "type": "Point", "coordinates": [ 349857.334341248555575, 6631387.968424469232559 ] } },
{ "type": "Feature", "properties": { "Field1": null, "ОМЯ": null, "Дата": null, "Происшествие": "Произошел выход водовоздушной смеси? не справилась ливневка, образовалась промоина", "Адрес": "Санкт-Петербург у входа м. Академическая", "Широта": 60.013024, "Долгота": 30.398524, "Ссылка-Заголовок": "https://www.spb.kp.ru/daily/27162.3/4260969/", "Доп. ссылка": null, "Доп. информация": null }, "geometry": { "type": "Point", "coordinates": [ 354977.667678991623688, 6655713.98841642588377 ] } },
{ "type": "Feature", "properties": { "Field1": null, "ОМЯ": null, "Дата": null, "Происшествие": "Модульная станция \"Водоканала\" самоуничтожилась", "Адрес": "Санкт-Петербург Красногвардейскмй переулок, 12", "Широта": 59.9818441, "Долгота": 30.3229432, "Ссылка-Заголовок": "https://vk.com/wall-68471405_13583757", "Доп. ссылка": null, "Доп. информация": null }, "geometry": { "type": "Point", "coordinates": [ 350625.310871171823237, 6652411.611792059615254 ] } },
{ "type": "Feature", "properties": { "Field1": null, "ОМЯ": null, "Дата": null, "Происшествие": "Затопление улицы", "Адрес": "Санкт-Петербург Байконурская ул., пр. Королёва", "Широта": 60.0116355, "Долгота": 30.278288, "Ссылка-Заголовок": "https://vk.com/wall-68471405_13582375", "Доп. ссылка": null, "Доп. информация": null }, "geometry": { "type": "Point", "coordinates": [ 348271.075408540375065, 6655829.221163911744952 ] } },
{ "type": "Feature", "properties": { "Field1": null, "ОМЯ": null, "Дата": null, "Происшествие": "Затопление дома", "Адрес": "Санкт-Петербург ул Галерная, 29", "Широта": 59.9334318, "Долгота": 30.2938641, "Ссылка-Заголовок": "https://vk.com/wall-68471405_13582266", "Доп. ссылка": null, "Доп. информация": null }, "geometry": { "type": "Point", "coordinates": [ 348782.873458719928749, 6647089.101906991563737 ] } },
{ "type": "Feature", "properties": { "Field1": null, "ОМЯ": null, "Дата": null, "Происшествие": "Затопление улицы", "Адрес": "Санкт-Петербург дублер ул. Стачек", "Широта": 59.8737787, "Долгота": 30.2586007, "Ссылка-Заголовок": "https://vk.com/wall-68471405_13580662", "Доп. ссылка": null, "Доп. информация": null }, "geometry": { "type": "Point", "coordinates": [ 346538.06119182263501, 6640530.65104475710541 ] } },
{ "type": "Feature", "properties": { "Field1": null, "ОМЯ": null, "Дата": null, "Происшествие": "Затопление улицы", "Адрес": "Санкт-Петербург ул. Казакова", "Широта": 59.8610829, "Долгота": 30.2024976, "Ссылка-Заголовок": "https://vk.com/wall-68471405_13580616", "Доп. ссылка": null, "Доп. информация": null }, "geometry": { "type": "Point", "coordinates": [ 343338.952040805888828, 6639248.964040450751781 ] } },
{ "type": "Feature", "properties": { "Field1": null, "ОМЯ": null, "Дата": null, "Происшествие": "Затопление улицы", "Адрес": "Санкт-Петербург перекресток ул. Димитрова и Бухарестской", "Широта": 59.851757, "Долгота": 30.39989, "Ссылка-Заголовок": "https://vk.com/wall-68471405_11430810", "Доп. ссылка": null, "Доп. информация": null }, "geometry": { "type": "Point", "coordinates": [ 354348.319119649007916, 6637760.44924180675298 ] } },
{ "type": "Feature", "properties": { "Field1": null, "ОМЯ": null, "Дата": null, "Происшествие": "Затопление улицы", "Адрес": "Санкт-Петербург Поклонногорская развязка (Афонская ул. от Аккуратова до Вербной и виадук от Вербной)", "Широта": 60.0316205, "Долгота": 30.301245, "Ссылка-Заголовок": "https://www.fontanka.ru/2019/07/09/018/", "Доп. ссылка": null, "Доп. информация": null }, "geometry": { "type": "Point", "coordinates": [ 349641.223631864995696, 6658001.223273017443717 ] } },
{ "type": "Feature", "properties": { "Field1": null, "ОМЯ": null, "Дата": null, "Происшествие": "Затопление улицы", "Адрес": "Санкт-Петербург ул. Байкова", "Широта": 60.026265, "Долгота": 30.3804682, "Ссылка-Заголовок": "https://www.fontanka.ru/2019/07/09/018/", "Доп. ссылка": null, "Доп. информация": null }, "geometry": { "type": "Point", "coordinates": [ 354029.884116840199567, 6657227.576130297966301 ] } },
{ "type": "Feature", "properties": { "Field1": null, "ОМЯ": null, "Дата": null, "Происшествие": "Затопление улицы", "Адрес": "Санкт-Петербург пр. Испытателей", "Широта": 60.0045152, "Долгота": 30.2935764, "Ссылка-Заголовок": "https://vk.com/wall-68471405_11471683", "Доп. ссылка": null, "Доп. информация": null }, "geometry": { "type": "Point", "coordinates": [ 349090.601586230914108, 6655001.710269526578486 ] } },
{ "type": "Feature", "properties": { "Field1": null, "ОМЯ": null, "Дата": null, "Происшествие": "Затопление улицы", "Адрес": "Санкт-Петербург Серебристый бульвар", "Широта": 60.0054026, "Долгота": 30.2814957, "Ссылка-Заголовок": "https://vk.com/wall-68471405_11471590", "Доп. ссылка": null, "Доп. информация": null }, "geometry": { "type": "Point", "coordinates": [ 348421.299430535524152, 6655128.111512271687388 ] } },
{ "type": "Feature", "properties": { "Field1": null, "ОМЯ": null, "Дата": null, "Происшествие": "Затопление улицы", "Адрес": "Санкт-Петербург Перекрёсток ул. Шувалова и бульвара Менделеева", "Широта": 60.053809, "Долгота": 30.42609, "Ссылка-Заголовок": "https://vk.com/wall-68471405_11470429", "Доп. ссылка": null, "Доп. информация": null }, "geometry": { "type": "Point", "coordinates": [ 356690.646584110159893, 6660193.714522310532629 ] } },
{ "type": "Feature", "properties": { "Field1": null, "ОМЯ": null, "Дата": null, "Происшествие": "Упало дерево, повреждена машина", "Адрес": "Санкт-Петербург Серебристый бульвар, 6к1", "Широта": 59.9973814, "Долгота": 30.2826935, "Ссылка-Заголовок": "https://vk.com/wall-68471405_11470008", "Доп. ссылка": null, "Доп. информация": null }, "geometry": { "type": "Point", "coordinates": [ 348451.364212784217671, 6654232.566078399308026 ] } },
{ "type": "Feature", "properties": { "Field1": 25, "ОМЯ": "Сильный дождь", "Дата": "07.08.2019-08.08.2019", "Происшествие": "Затопление улицы", "Адрес": "Санкт-Петербург ул. Партизана Германа, 2", "Широта": 59.8431316, "Долгота": 30.1796535, "Ссылка-Заголовок": "https://www.fontanka.ru/2019/08/08/121/?sharePost=1565281740", "Доп. ссылка": null, "Доп. информация": null }, "geometry": { "type": "Point", "coordinates": [ 341975.072189401136711, 6637305.273981302976608 ] } },
{ "type": "Feature", "properties": { "Field1": null, "ОМЯ": null, "Дата": null, "Происшествие": "Затопление улицы", "Адрес": "Санкт-Петербург Московский пр. (у м. Технологический инстиут)", "Широта": 59.916117, "Долгота": 30.318171, "Ссылка-Заголовок": "https://www.fontanka.ru/2019/08/08/121/?sharePost=1565281740", "Доп. ссылка": null, "Доп. информация": null }, "geometry": { "type": "Point", "coordinates": [ 350062.510938541498035, 6645106.574709552340209 ] } },
{ "type": "Feature", "properties": { "Field1": null, "ОМЯ": null, "Дата": null, "Происшествие": "Затопление улицы", "Адрес": "Санкт-Петербург перекресток Лиговского и Витебского проспектов", "Широта": 59.901536, "Долгота": 30.339777, "Ссылка-Заголовок": "https://www.fontanka.ru/2019/08/08/121/?sharePost=1565281740", "Доп. ссылка": null, "Доп. информация": null }, "geometry": { "type": "Point", "coordinates": [ 351204.794973759504501, 6643434.869782310910523 ] } },
{ "type": "Feature", "properties": { "Field1": null, "ОМЯ": null, "Дата": null, "Происшествие": "Затопление улицы", "Адрес": "Санкт-Петербург ул. Пинегина", "Широта": 59.894964, "Долгота": 30.4175255, "Ссылка-Заголовок": "https://www.fontanka.ru/2019/08/08/121/?sharePost=1565281740", "Доп. ссылка": null, "Доп. информация": null }, "geometry": { "type": "Point", "coordinates": [ 355523.498813015292399, 6642531.147488625720143 ] } },
{ "type": "Feature", "properties": { "Field1": null, "ОМЯ": null, "Дата": null, "Происшествие": "Затопление улицы", "Адрес": "Санкт-Петербург площадь Тургенева", "Широта": 59.9183064, "Долгота": 30.2889563, "Ссылка-Заголовок": "https://www.fontanka.ru/2019/08/08/121/?sharePost=1565281740", "Доп. ссылка": null, "Доп. информация": null }, "geometry": { "type": "Point", "coordinates": [ 348439.744233886827715, 6645416.802630024962127 ] } },
{ "type": "Feature", "properties": { "Field1": null, "ОМЯ": null, "Дата": null, "Происшествие": "Затопление улицы", "Адрес": "Санкт-Петербург ул. Фрунзе", "Широта": 59.861777, "Долгота": 30.3256083, "Ссылка-Заголовок": "https://www.fontanka.ru/2019/08/08/121/?sharePost=1565281740", "Доп. ссылка": null, "Доп. информация": null }, "geometry": { "type": "Point", "coordinates": [ 350233.77153070102213, 6639041.405828516930342 ] } },
{ "type": "Feature", "properties": { "Field1": null, "ОМЯ": null, "Дата": null, "Происшествие": "Затопление улицы", "Адрес": "Санкт-Петербург ул. Благодатная", "Широта": 59.8760736, "Долгота": 30.3262993, "Ссылка-Заголовок": "https://www.fontanka.ru/2019/08/08/121/?sharePost=1565281740", "Доп. ссылка": null, "Доп. информация": null }, "geometry": { "type": "Point", "coordinates": [ 350336.723959240596741, 6640631.13137130625546 ] } },
{ "type": "Feature", "properties": { "Field1": null, "ОМЯ": null, "Дата": null, "Происшествие": "Выбило ливневые люки", "Адрес": "Санкт-Петербург пр. Космонавтов (около пр. Космонавтов, 14)", "Широта": 59.8693762, "Долгота": 30.3502833, "Ссылка-Заголовок": "https://www.fontanka.ru/2019/08/08/121/?sharePost=1565281740", "Доп. ссылка": null, "Доп. информация": null }, "geometry": { "type": "Point", "coordinates": [ 351648.93777164776111, 6639831.703014685772359 ] } },
{ "type": "Feature", "properties": { "Field1": null, "ОМЯ": null, "Дата": null, "Происшествие": "Затопление улицы, обесточило дом", "Адрес": "Санкт-Петербург пр. Обуховской обороны", "Широта": 59.8836514, "Долгота": 30.4440465, "Ссылка-Заголовок": "https://www.fontanka.ru/2019/08/08/121/?sharePost=1565281740", "Доп. ссылка": null, "Доп. информация": null }, "geometry": { "type": "Point", "coordinates": [ 356958.098652471904643, 6641214.356212023645639 ] } },
{ "type": "Feature", "properties": { "Field1": null, "ОМЯ": null, "Дата": null, "Происшествие": "Затопление улицы", "Адрес": "Санкт-Петербург ул. Салова", "Широта": 59.8858678, "Долгота": 30.3716965, "Ссылка-Заголовок": "https://www.fontanka.ru/2019/08/08/121/?sharePost=1565281740", "Доп. ссылка": null, "Доп. информация": null }, "geometry": { "type": "Point", "coordinates": [ 352920.275831650011241, 6641619.566137963905931 ] } },
{ "type": "Feature", "properties": { "Field1": null, "ОМЯ": null, "Дата": null, "Происшествие": "Затопление здания", "Адрес": "Санкт-Петербург Волковский просп., 32", "Широта": 59.895981, "Долгота": 30.3576467, "Ссылка-Заголовок": "https://www.fontanka.ru/2019/08/08/121/?sharePost=1565281740", "Доп. ссылка": null, "Доп. информация": null }, "geometry": { "type": "Point", "coordinates": [ 352179.266649448021781, 6642776.529262876138091 ] } },
{ "type": "Feature", "properties": { "Field1": null, "ОМЯ": null, "Дата": null, "Происшествие": "Затопление улицы", "Адрес": "Санкт-Петербург ул. Русановская", "Широта": 59.8638521, "Долгота": 30.5044997, "Ссылка-Заголовок": "https://www.fontanka.ru/2019/08/08/121/?sharePost=1565281740", "Доп. ссылка": null, "Доп. информация": null }, "geometry": { "type": "Point", "coordinates": [ 360257.161056924029253, 6638881.383618799038231 ] } },
{ "type": "Feature", "properties": { "Field1": null, "ОМЯ": null, "Дата": null, "Происшествие": "Затопление улицы", "Адрес": "Санкт-Петербург пр. Обуховской обороны (под Володарским мостом)", "Широта": 59.8777182, "Долгота": 30.4533721, "Ссылка-Заголовок": "https://www.fontanka.ru/2019/08/08/121/?sharePost=1565281740", "Доп. ссылка": null, "Доп. информация": null }, "geometry": { "type": "Point", "coordinates": [ 357454.419811471307185, 6640533.816280344501138 ] } },
{ "type": "Feature", "properties": { "Field1": null, "ОМЯ": null, "Дата": null, "Происшествие": "Затопление улицы", "Адрес": "Санкт-Петербург Синопская набережная", "Широта": 59.9335631, "Долгота": 30.3914274, "Ссылка-Заголовок": "https://www.fontanka.ru/2019/08/08/121/?sharePost=1565281740", "Доп. ссылка": null, "Доп. информация": null }, "geometry": { "type": "Point", "coordinates": [ 354233.312192000914365, 6646884.807957298122346 ] } },
{ "type": "Feature", "properties": { "Field1": null, "ОМЯ": null, "Дата": null, "Происшествие": "Затопление улицы", "Адрес": "Санкт-Петербург Лиговский пр.", "Широта": 59.9140755, "Долгота": 30.3496404, "Ссылка-Заголовок": "https://www.fontanka.ru/2019/08/08/121/?sharePost=1565281740", "Доп. ссылка": null, "Доп. информация": null }, "geometry": { "type": "Point", "coordinates": [ 351812.193249806412496, 6644808.474735371768475 ] } },
{ "type": "Feature", "properties": { "Field1": null, "ОМЯ": null, "Дата": null, "Происшествие": "Затопление улицы", "Адрес": "Санкт-Петербург Московский пр. (у м. Фрунзенская)", "Широта": 59.905944, "Долгота": 30.318351, "Ссылка-Заголовок": "https://www.fontanka.ru/2019/08/08/121/?sharePost=1565281740", "Доп. ссылка": null, "Доп. информация": null }, "geometry": { "type": "Point", "coordinates": [ 350026.682389296591282, 6643973.855677549727261 ] } },
{ "type": "Feature", "properties": { "Field1": null, "ОМЯ": null, "Дата": null, "Происшествие": "Затопление улицы", "Адрес": "Санкт-Петербург тоннель под мостом Александра Невского", "Широта": 59.924841, "Долгота": 30.391059, "Ссылка-Заголовок": "https://www.fontanka.ru/2019/08/08/121/?sharePost=1565281740", "Доп. ссылка": null, "Доп. информация": null }, "geometry": { "type": "Point", "coordinates": [ 354174.449414140428416, 6645914.770874253474176 ] } },
{ "type": "Feature", "properties": { "Field1": null, "ОМЯ": null, "Дата": null, "Происшествие": "Задержка рейсов", "Адрес": "Санкт-Петербург аэропорт \"Пулково\"", "Широта": 59.8029127, "Долгота": 30.2678391, "Ссылка-Заголовок": "https://www.fontanka.ru/2019/08/08/121/?sharePost=1565281740", "Доп. ссылка": null, "Доп. информация": null }, "geometry": { "type": "Point", "coordinates": [ 346729.582548779551871, 6632621.72981658577919 ] } },
{ "type": "Feature", "properties": { "Field1": null, "ОМЯ": null, "Дата": null, "Происшествие": null, "Адрес": null, "Широта": null, "Долгота": null, "Ссылка-Заголовок": null, "Доп. ссылка": null, "Доп. информация": null }, "geometry": { "type": "Point", "coordinates": [ -3395506.464874160476029, 0.0 ] } },
{ "type": "Feature", "properties": { "Field1": null, "ОМЯ": null, "Дата": null, "Происшествие": null, "Адрес": null, "Широта": null, "Долгота": null, "Ссылка-Заголовок": null, "Доп. ссылка": null, "Доп. информация": null }, "geometry": { "type": "Point", "coordinates": [ -3395506.464874160476029, 0.0 ] } },
{ "type": "Feature", "properties": { "Field1": 26, "ОМЯ": "Сильный дождь", "Дата": "2021/08/03", "Происшествие": "Затопление ЖК \"Английская миля\"", "Адрес": null, "Широта": 59.845957, "Долгота": 30.107405, "Ссылка-Заголовок": "https://tvspb.ru/news/2021/08/3/v-krasnoselskom-rajone-posle-dozhdya-zatopilo-tretyu-ochered-zhk-anglijskaya-milya/", "Доп. ссылка": null, "Доп. информация": null }, "geometry": { "type": "Point", "coordinates": [ 337942.386805559217464, 6637794.300799121148884 ] } }
]
}
